lat,name,rental_methods/0,rental_methods/1,rental_methods/2,has_kiosk,rental_uris/android,rental_uris/ios,region_id,station_type,legacy_id,electric_bike_surcharge_waiver,short_name,capacity,eightd_has_key_dispenser,lon,station_id,external_id,eightd_station_services/0/description,eightd_station_services/0/bikes_availability,eightd_station_services/0/service_type,eightd_station_services/0/id,eightd_station_services/0/docks_availability,eightd_station_services/0/name,eightd_station_services/0/off_dock_bikes_count,eightd_station_services/0/off_dock_remaining_bike_capacity,address,dockless_bikes_parking_zone_capacity,region_code,rack_model,client_station_id
41.82879201994,Leavitt St & Archer Ave,CREDITCARD,TRANSITCARD,KEY,True,https://chi.lft.to/lastmile_qr_scan,https://chi.lft.to/lastmile_qr_scan,,classic,9,False,KA1503000068,15,False,-87.6806044594,9,a3a39301-a135-11e9-9cda-0a87ae2ba916,,,,,,,,,,,,,
41.76663823695,Jeffery Blvd & 71st St,CREDITCARD,TRANSITCARD,KEY,True,https://chi.lft.to/lastmile_qr_scan,https://chi.lft.to/lastmile_qr_scan,,classic,11,False,KA1503000018,11,False,-87.5764501141,11,a3a3983e-a135-11e9-9cda-0a87ae2ba916,,,,,,,,,,,,,
41.7664094567,South Shore Dr & 71st St,CREDITCARD,TRANSITCARD,KEY,True,https://chi.lft.to/lastmile_qr_scan,https://chi.lft.to/lastmile_qr_scan,,classic,12,False,KA1503000002,15,False,-87.5656875719,12,a3a39d55-a135-11e9-9cda-0a87ae2ba916,,,,,,,,,,,,,
41.858086,Morgan St & 18th St,CREDITCARD,TRANSITCARD,KEY,True,https://chi.lft.to/lastmile_qr_scan,https://chi.lft.to/lastmile_qr_scan,,classic,14,False,13163,15,False,-87.651073,14,a3a3a7b4-a135-11e9-9cda-0a87ae2ba916,,,,,,,,,,,,,
41.858166,Racine Ave & 18th St,CREDITCARD,TRANSITCARD,KEY,True,https://chi.lft.to/lastmile_qr_scan,https://chi.lft.to/lastmile_qr_scan,,classic,15,False,13164,15,False,-87.656495,15,a3a3ace6-a135-11e9-9cda-0a87ae2ba916,,,,,,,,,,,,,
41.90985465216731,Paulina Ave & North Ave,CREDITCARD,TRANSITCARD,KEY,True,https://chi.lft.to/lastmile_qr_scan,https://chi.lft.to/lastmile_qr_scan,,classic,16,False,TA1305000037,15,False,-87.66993016004562,16,a3a3b202-a135-11e9-9cda-0a87ae2ba916,,,,,,,,,,,,,
41.88314336439022,Wacker Dr & Washington St,CREDITCARD,TRANSITCARD,KEY,True,https://chi.lft.to/lastmile_qr_scan,https://chi.lft.to/lastmile_qr_scan,,classic,18,False,KA1503000072,15,False,-87.63724207878113,18,a3a3bc53-a135-11e9-9cda-0a87ae2ba916,,,,,,,,,,,,,
41.868968,Throop St & Taylor St,CREDITCARD,TRANSITCARD,KEY,True,https://chi.lft.to/lastmile_qr_scan,https://chi.lft.to/lastmile_qr_scan,,classic,19,False,13139,15,False,-87.659141,19,a3a3c174-a135-11e9-9cda-0a87ae2ba916,,,,,,,,,,,,,
41.910522,Sheffield Ave & Kingsbury St,CREDITCARD,TRANSITCARD,KEY,True,https://chi.lft.to/lastmile_qr_scan,https://chi.lft.to/lastmile_qr_scan,,classic,20,False,13154,15,False,-87.653106,20,a3a3c696-a135-11e9-9cda-0a87ae2ba916,,,,,,,,,,,,,
41.8694821,May St & Taylor St,CREDITCARD,TRANSITCARD,KEY,True,https://chi.lft.to/lastmile_qr_scan,https://chi.lft.to/lastmile_qr_scan,,classic,22,False,13160,15,False,-87.6554864,22,a3a3d1b8-a135-11e9-9cda-0a87ae2ba916,,,,,,,,,,,,,
41.902924,Orleans St & Elm St,CREDITCARD,TRANSITCARD,KEY,True,https://chi.lft.to/lastmile_qr_scan,https://chi.lft.to/lastmile_qr_scan,,classic,23,False,TA1306000006,15,False,-87.637715,23,a3a3d6f0-a135-11e9-9cda-0a87ae2ba916,,,,,,,,,,,,,
41.89184737210993,Fairbanks Ct & Grand Ave,CREDITCARD,TRANSITCARD,KEY,True,https://chi.lft.to/lastmile_qr_scan,https://chi.lft.to/lastmile_qr_scan,,classic,24,False,TA1305000003,15,False,-87.62058019638062,24,a3a3dc37-a135-11e9-9cda-0a87ae2ba916,,,,,,,,,,,,,
41.91468,Larrabee St & Menomonee St,CREDITCARD,TRANSITCARD,KEY,True,https://chi.lft.to/lastmile_qr_scan,https://chi.lft.to/lastmile_qr_scan,,classic,28,False,TA1306000007,15,False,-87.64332,28,a3a3f0c6-a135-11e9-9cda-0a87ae2ba916,,,,,,,,,,,,,
41.90068,Noble St & Milwaukee Ave,CREDITCARD,TRANSITCARD,KEY,True,https://chi.lft.to/lastmile_qr_scan,https://chi.lft.to/lastmile_qr_scan,,classic,29,False,13290,15,False,-87.6626,29,a3a3f5e9-a135-11e9-9cda-0a87ae2ba916,,,,,,,,,,,,,
41.9267559875,Cannon Dr & Fullerton Ave,CREDITCARD,TRANSITCARD,KEY,True,https://chi.lft.to/lastmile_qr_scan,https://chi.lft.to/lastmile_qr_scan,,classic,34,False,13124,15,False,-87.6344287848,34,a3a41004-a135-11e9-9cda-0a87ae2ba916,,,,,,,,,,,,,
41.87934437346,LaSalle St & Adams St,CREDITCARD,TRANSITCARD,KEY,True,https://chi.lft.to/lastmile_qr_scan,https://chi.lft.to/lastmile_qr_scan,,classic,40,False,KA1503000034,15,False,-87.6319852213,40,a3a42fa7-a135-11e9-9cda-0a87ae2ba916,,,,,,,,,,,,,
41.852619,Wabash Ave & Cermak Rd,CREDITCARD,TRANSITCARD,KEY,True,https://chi.lft.to/lastmile_qr_scan,https://chi.lft.to/lastmile_qr_scan,,classic,42,False,TA1305000001,11,False,-87.626488,42,a3a43a25-a135-11e9-9cda-0a87ae2ba916,,,,,,,,,,,,,
41.876243,Michigan Ave & Ida B Wells Dr,CREDITCARD,TRANSITCARD,KEY,True,https://chi.lft.to/lastmile_qr_scan,https://chi.lft.to/lastmile_qr_scan,,classic,45,False,TA1305000010,15,False,-87.624426,45,a3a4499f-a135-11e9-9cda-0a87ae2ba916,,,,,,,,,,,,,
41.8671177825,Clinton St & Roosevelt Rd,CREDITCARD,TRANSITCARD,KEY,True,https://chi.lft.to/lastmile_qr_scan,https://chi.lft.to/lastmile_qr_scan,,classic,57,False,WL-008,15,False,-87.6410879593,57,a3a4881d-a135-11e9-9cda-0a87ae2ba916,,,,,,,,,,,,,
41.913688,Sheffield Ave & Willow St,CREDITCARD,TRANSITCARD,KEY,True,https://chi.lft.to/lastmile_qr_scan,https://chi.lft.to/lastmile_qr_scan,,classic,93,False,TA1306000032,15,False,-87.652855,93,a3a51e6e-a135-11e9-9cda-0a87ae2ba916,,,,,,,,,,,,,
41.778881,Stony Island Ave & 64th St,CREDITCARD,TRANSITCARD,KEY,True,https://chi.lft.to/lastmile_qr_scan,https://chi.lft.to/lastmile_qr_scan,,classic,95,False,KA1503000021,11,False,-87.586647,95,a3a528d0-a135-11e9-9cda-0a87ae2ba916,,,,,,,,,,,,,
41.882664,LaSalle St & Washington St,CREDITCARD,TRANSITCARD,KEY,True,https://chi.lft.to/lastmile_qr_scan,https://chi.lft.to/lastmile_qr_scan,,classic,98,False,13006,15,False,-87.63253,98,a3a53843-a135-11e9-9cda-0a87ae2ba916,,,,,,,,,,,,,
41.77345849948,Stony Island Ave & 67th St,CREDITCARD,TRANSITCARD,KEY,True,https://chi.lft.to/lastmile_qr_scan,https://chi.lft.to/lastmile_qr_scan,,classic,102,False,KA1503000023,11,False,-87.5853397391,102,a3a54cdb-a135-11e9-9cda-0a87ae2ba916,,,,,,,,,,,,,
41.87146651779,Clinton St & Polk St,CREDITCARD,TRANSITCARD,KEY,True,https://chi.lft.to/lastmile_qr_scan,https://chi.lft.to/lastmile_qr_scan,,classic,103,False,15542,15,False,-87.6409491327,103,a3a555e8-a135-11e9-9cda-0a87ae2ba916,,,,,,,,,,,,,
41.88318130597391,Green St & Randolph St,CREDITCARD,TRANSITCARD,KEY,True,https://chi.lft.to/lastmile_qr_scan,https://chi.lft.to/lastmile_qr_scan,,classic,112,False,13053,11,False,-87.64872461557388,112,a3a57a52-a135-11e9-9cda-0a87ae2ba916,,,,,,,,,,,,,
41.91552,Western Ave & Winnebago Ave,CREDITCARD,TRANSITCARD,KEY,True,https://chi.lft.to/lastmile_qr_scan,https://chi.lft.to/lastmile_qr_scan,,classic,116,False,13068,15,False,-87.687022,116,a3a58ee0-a135-11e9-9cda-0a87ae2ba916,,,,,,,,,,,,,
41.87501,Ogden Ave & Congress Pkwy,CREDITCARD,TRANSITCARD,KEY,True,https://chi.lft.to/lastmile_qr_scan,https://chi.lft.to/lastmile_qr_scan,,classic,122,False,13081,15,False,-87.67328,122,a3a5af44-a135-11e9-9cda-0a87ae2ba916,,,,,,,,,,,,,
41.922695,California Ave & Milwaukee Ave,CREDITCARD,TRANSITCARD,KEY,True,https://chi.lft.to/lastmile_qr_scan,https://chi.lft.to/lastmile_qr_scan,,classic,123,False,13084,15,False,-87.697153,123,a3a5b496-a135-11e9-9cda-0a87ae2ba916,,,,,,,,,,,,,
41.854966518753926,Damen Ave & Cullerton St,CREDITCARD,TRANSITCARD,KEY,True,https://chi.lft.to/lastmile_qr_scan,https://chi.lft.to/lastmile_qr_scan,,classic,124,False,13089,15,False,-87.67569959163664,124,a3a5b9d3-a135-11e9-9cda-0a87ae2ba916,,,,,,,,,,,,,
41.911974,Clark St & North Ave,CREDITCARD,TRANSITCARD,KEY,True,https://chi.lft.to/lastmile_qr_scan,https://chi.lft.to/lastmile_qr_scan,,classic,126,False,13128,15,False,-87.631942,126,a3a5c440-a135-11e9-9cda-0a87ae2ba916,,,,,,,,,,,,,
41.924161029067626,Lincoln Ave & Fullerton Ave,CREDITCARD,TRANSITCARD,KEY,True,https://chi.lft.to/lastmile_qr_scan,https://chi.lft.to/lastmile_qr_scan,,classic,127,False,TA1309000058,15,False,-87.64638036489487,127,a3a5c96f-a135-11e9-9cda-0a87ae2ba916,,,,,,,,,,,,,
41.939365,Lincoln Ave & Belmont Ave,CREDITCARD,TRANSITCARD,KEY,True,https://chi.lft.to/lastmile_qr_scan,https://chi.lft.to/lastmile_qr_scan,,classic,131,False,TA1309000042,15,False,-87.668385,131,a3a5de24-a135-11e9-9cda-0a87ae2ba916,,,,,,,,,,,,,
41.85008369347577,Wentworth Ave & 24th St (Temp),CREDITCARD,TRANSITCARD,KEY,True,https://chi.lft.to/lastmile_qr_scan,https://chi.lft.to/lastmile_qr_scan,,classic,132,False,TA1308000026,15,False,-87.6321405172348,132,a3a5e353-a135-11e9-9cda-0a87ae2ba916,,,,,,,,,,,,,
41.85377981072743,Halsted St & 21st St,CREDITCARD,TRANSITCARD,KEY,True,https://chi.lft.to/lastmile_qr_scan,https://chi.lft.to/lastmile_qr_scan,,classic,135,False,13162,11,False,-87.6466029882431,135,a3a5f5e6-a135-11e9-9cda-0a87ae2ba916,,,,,,,,,,,,,
41.865054,Racine Ave & 13th St,CREDITCARD,TRANSITCARD,KEY,True,https://chi.lft.to/lastmile_qr_scan,https://chi.lft.to/lastmile_qr_scan,,classic,136,False,13165,15,False,-87.656959,136,a3a5fb0d-a135-11e9-9cda-0a87ae2ba916,,,,,,,,,,,,,
41.862378,Morgan Ave & 14th Pl,CREDITCARD,TRANSITCARD,KEY,True,https://chi.lft.to/lastmile_qr_scan,https://chi.lft.to/lastmile_qr_scan,,classic,137,False,TA1306000002,15,False,-87.651062,137,a3a6002c-a135-11e9-9cda-0a87ae2ba916,,,,,,,,,,,,,
41.904613,Clybourn Ave & Division St,CREDITCARD,TRANSITCARD,KEY,True,https://chi.lft.to/lastmile_qr_scan,https://chi.lft.to/lastmile_qr_scan,,classic,138,False,TA1307000115,15,False,-87.640552,138,a3a6054c-a135-11e9-9cda-0a87ae2ba916,,,,,,,,,,,,,
41.922167,Sedgwick St & Webster Ave,CREDITCARD,TRANSITCARD,KEY,True,https://chi.lft.to/lastmile_qr_scan,https://chi.lft.to/lastmile_qr_scan,,classic,143,False,13191,15,False,-87.638888,143,a3a61a0b-a135-11e9-9cda-0a87ae2ba916,,,,,,,,,,,,,
41.845687,Indiana Ave & 26th St,CREDITCARD,TRANSITCARD,KEY,True,https://chi.lft.to/lastmile_qr_scan,https://chi.lft.to/lastmile_qr_scan,,classic,147,False,TA1307000005,15,False,-87.622481,147,a3a62fc9-a135-11e9-9cda-0a87ae2ba916,,,,,,,,,,,,,
41.834734,State St & 33rd St,CREDITCARD,TRANSITCARD,KEY,True,https://chi.lft.to/lastmile_qr_scan,https://chi.lft.to/lastmile_qr_scan,,classic,148,False,13216,15,False,-87.625813,148,a3a634dd-a135-11e9-9cda-0a87ae2ba916,,,,,,,,,,,,,
41.8349,Calumet Ave & 33rd St,CREDITCARD,TRANSITCARD,KEY,True,https://chi.lft.to/lastmile_qr_scan,https://chi.lft.to/lastmile_qr_scan,,classic,149,False,13217,11,False,-87.61793,149,a3a639f5-a135-11e9-9cda-0a87ae2ba916,,,,,,,,,,,,,
41.932225,Lincoln Ave & Diversey Pkwy,CREDITCARD,TRANSITCARD,KEY,True,https://chi.lft.to/lastmile_qr_scan,https://chi.lft.to/lastmile_qr_scan,,classic,152,False,TA1307000064,15,False,-87.658617,152,a3a64639-a135-11e9-9cda-0a87ae2ba916,,,,,,,,,,,,,
41.93947775040509,Southport Ave & Belmont Ave,CREDITCARD,TRANSITCARD,KEY,True,https://chi.lft.to/lastmile_qr_scan,https://chi.lft.to/lastmile_qr_scan,,classic,154,False,13229,15,False,-87.6637476682663,154,a3a6c910-a135-11e9-9cda-0a87ae2ba916,,,,,,,,,,,,,
41.9364968219,Clark St & Wellington Ave,CREDITCARD,TRANSITCARD,KEY,True,https://chi.lft.to/lastmile_qr_scan,https://chi.lft.to/lastmile_qr_scan,,classic,156,False,TA1307000136,15,False,-87.6475386582,156,a3a6ce53-a135-11e9-9cda-0a87ae2ba916,,,,,,,,,,,,,
41.9366884494997,DuSable Lake Shore Dr & Wellington Ave,CREDITCARD,TRANSITCARD,KEY,True,https://chi.lft.to/lastmile_qr_scan,https://chi.lft.to/lastmile_qr_scan,,classic,157,False,TA1307000041,15,False,-87.63682901859283,157,a3a6d371-a135-11e9-9cda-0a87ae2ba916,,,,,,,,,,,,,
41.912616,Milwaukee Ave & Wabansia Ave,CREDITCARD,TRANSITCARD,KEY,True,https://chi.lft.to/lastmile_qr_scan,https://chi.lft.to/lastmile_qr_scan,,classic,158,False,13243,15,False,-87.681391,158,a3a6d884-a135-11e9-9cda-0a87ae2ba916,,,,,,,,,,,,,
41.907781,Claremont Ave & Hirsch St,CREDITCARD,TRANSITCARD,KEY,True,https://chi.lft.to/lastmile_qr_scan,https://chi.lft.to/lastmile_qr_scan,,classic,159,False,13245,11,False,-87.685854,159,a3a6de38-a135-11e9-9cda-0a87ae2ba916,,,,,,,,,,,,,
41.910535,Campbell Ave & North Ave,CREDITCARD,TRANSITCARD,KEY,True,https://chi.lft.to/lastmile_qr_scan,https://chi.lft.to/lastmile_qr_scan,,classic,160,False,13257,15,False,-87.689556,160,a3a6e359-a135-11e9-9cda-0a87ae2ba916,,,,,,,,,,,,,
41.93588,Damen Ave & Wellington Ave,CREDITCARD,TRANSITCARD,KEY,True,https://chi.lft.to/lastmile_qr_scan,https://chi.lft.to/lastmile_qr_scan,,classic,162,False,13268,15,False,-87.67842,162,a3a6ed98-a135-11e9-9cda-0a87ae2ba916,,,,,,,,,,,,,
41.931931,Damen Ave & Clybourn Ave,CREDITCARD,TRANSITCARD,KEY,True,https://chi.lft.to/lastmile_qr_scan,https://chi.lft.to/lastmile_qr_scan,,classic,163,False,13271,15,False,-87.677856,163,a3a6f2a2-a135-11e9-9cda-0a87ae2ba916,,,,,,,,,,,,,
41.8492,Damen Ave & Coulter St,CREDITCARD,TRANSITCARD,KEY,True,https://chi.lft.to/lastmile_qr_scan,https://chi.lft.to/lastmile_qr_scan,,classic,167,False,TA1307000066,7,False,-87.67564,167,a3a706c0-a135-11e9-9cda-0a87ae2ba916,,,,,,,,,,,,,
41.874255,Canal St & Harrison St,CREDITCARD,TRANSITCARD,KEY,True,https://chi.lft.to/lastmile_qr_scan,https://chi.lft.to/lastmile_qr_scan,,classic,169,False,13326,15,False,-87.639573,169,a3a710c5-a135-11e9-9cda-0a87ae2ba916,,,,,,,,,,,,,
41.85795,Clinton St & 18th St,CREDITCARD,TRANSITCARD,KEY,True,https://chi.lft.to/lastmile_qr_scan,https://chi.lft.to/lastmile_qr_scan,,classic,170,False,TA1307000044,15,False,-87.640826,170,a3a715ce-a135-11e9-9cda-0a87ae2ba916,,,,,,,,,,,,,
41.855136,May St & Cullerton St,CREDITCARD,TRANSITCARD,KEY,True,https://chi.lft.to/lastmile_qr_scan,https://chi.lft.to/lastmile_qr_scan,,classic,171,False,13331,11,False,-87.654127,171,a3a71b0a-a135-11e9-9cda-0a87ae2ba916,,,,,,,,,,,,,
41.90230870122,Rush St & Cedar St,CREDITCARD,TRANSITCARD,KEY,True,https://chi.lft.to/lastmile_qr_scan,https://chi.lft.to/lastmile_qr_scan,,classic,172,False,KA1504000133,11,False,-87.627690528,172,a3a72012-a135-11e9-9cda-0a87ae2ba916,,,,,,,,,,,,,
41.896944626370825,Mies van der Rohe Way & Chicago Ave,CREDITCARD,TRANSITCARD,KEY,True,https://chi.lft.to/lastmile_qr_scan,https://chi.lft.to/lastmile_qr_scan,,classic,173,False,13338,15,False,-87.62175768613815,173,a3a7258b-a135-11e9-9cda-0a87ae2ba916,,,,,,,,,,,,,
41.856594,State St & 19th St,CREDITCARD,TRANSITCARD,KEY,True,https://chi.lft.to/lastmile_qr_scan,https://chi.lft.to/lastmile_qr_scan,,classic,178,False,SL-013,15,False,-87.627542,178,a3a73ef1-a135-11e9-9cda-0a87ae2ba916,,,,,,,,,,,,,
41.8246,MLK Jr Dr & Pershing Rd,CREDITCARD,TRANSITCARD,KEY,True,https://chi.lft.to/lastmile_qr_scan,https://chi.lft.to/lastmile_qr_scan,,classic,179,False,13420,15,False,-87.61678,179,a3a743ff-a135-11e9-9cda-0a87ae2ba916,,,,,,,,,,,,,
41.906866,Ritchie Ct & Banks St,CREDITCARD,TRANSITCARD,KEY,True,https://chi.lft.to/lastmile_qr_scan,https://chi.lft.to/lastmile_qr_scan,,classic,180,False,KA1504000134,15,False,-87.626217,180,a3a74947-a135-11e9-9cda-0a87ae2ba916,,,,,,,,,,,,,
41.917741,Stave St & Armitage Ave,CREDITCARD,TRANSITCARD,KEY,True,https://chi.lft.to/lastmile_qr_scan,https://chi.lft.to/lastmile_qr_scan,,classic,185,False,13266,11,False,-87.691392,185,a3a762a1-a135-11e9-9cda-0a87ae2ba916,,,,,,,,,,,,,
41.891795,Ogden Ave & Race Ave,CREDITCARD,TRANSITCARD,KEY,True,https://chi.lft.to/lastmile_qr_scan,https://chi.lft.to/lastmile_qr_scan,,classic,186,False,13194,15,False,-87.658751,186,a3a767b1-a135-11e9-9cda-0a87ae2ba916,,,,,,,,,,,,,
41.92533,Greenview Ave & Fullerton Ave,CREDITCARD,TRANSITCARD,KEY,True,https://chi.lft.to/lastmile_qr_scan,https://chi.lft.to/lastmile_qr_scan,,classic,188,False,TA1307000001,15,False,-87.6658,188,a3a76cb6-a135-11e9-9cda-0a87ae2ba916,,,,,,,,,,,,,
41.928773,Southport Ave & Wrightwood Ave,CREDITCARD,TRANSITCARD,KEY,True,https://chi.lft.to/lastmile_qr_scan,https://chi.lft.to/lastmile_qr_scan,,classic,190,False,TA1307000113,15,False,-87.663913,190,a3a771c2-a135-11e9-9cda-0a87ae2ba916,,,,,,,,,,,,,
41.841707,State St & 29th St,CREDITCARD,TRANSITCARD,KEY,True,https://chi.lft.to/lastmile_qr_scan,https://chi.lft.to/lastmile_qr_scan,,classic,193,False,13213,11,False,-87.626938,193,a3a781a6-a135-11e9-9cda-0a87ae2ba916,,,,,,,,,,,,,
41.809851,MLK Jr Dr & 47th St,CREDITCARD,TRANSITCARD,KEY,True,https://chi.lft.to/lastmile_qr_scan,https://chi.lft.to/lastmile_qr_scan,,classic,200,False,TA1308000007,11,False,-87.616279,200,a3a7a4fc-a135-11e9-9cda-0a87ae2ba916,,,,,,,,,,,,,
41.82168,Indiana Ave & 40th St,CREDITCARD,TRANSITCARD,KEY,True,https://chi.lft.to/lastmile_qr_scan,https://chi.lft.to/lastmile_qr_scan,,classic,201,False,13083,11,False,-87.6216,201,a3a7aa0e-a135-11e9-9cda-0a87ae2ba916,,,,,,,,,,,,,
41.85750568031716,Halsted St & 18th St,CREDITCARD,TRANSITCARD,KEY,True,https://chi.lft.to/lastmile_qr_scan,https://chi.lft.to/lastmile_qr_scan,,classic,202,False,13099,15,False,-87.64599144458771,202,a3a7af11-a135-11e9-9cda-0a87ae2ba916,,,,,,,,,,,,,
41.854109,Western Ave & 21st St,CREDITCARD,TRANSITCARD,KEY,True,https://chi.lft.to/lastmile_qr_scan,https://chi.lft.to/lastmile_qr_scan,,classic,203,False,13091,15,False,-87.685838,203,a3a7b41d-a135-11e9-9cda-0a87ae2ba916,,,,,,,,,,,,,
41.794853,Prairie Ave & Garfield Blvd,CREDITCARD,TRANSITCARD,KEY,True,https://chi.lft.to/lastmile_qr_scan,https://chi.lft.to/lastmile_qr_scan,,classic,204,False,TA1307000160,11,False,-87.618691,204,a3a7b936-a135-11e9-9cda-0a87ae2ba916,,,,,,,,,,,,,
41.857901,Paulina St & 18th St,CREDITCARD,TRANSITCARD,KEY,True,https://chi.lft.to/lastmile_qr_scan,https://chi.lft.to/lastmile_qr_scan,,classic,205,False,TA1307000159,15,False,-87.668745,205,a3a7be40-a135-11e9-9cda-0a87ae2ba916,,,,,,,,,,,,,
41.847203,Halsted St & Archer Ave,CREDITCARD,TRANSITCARD,KEY,True,https://chi.lft.to/lastmile_qr_scan,https://chi.lft.to/lastmile_qr_scan,,classic,206,False,TA1308000013,15,False,-87.646795,206,a3a7c341-a135-11e9-9cda-0a87ae2ba916,,,,,,,,,,,,,
41.84358,Emerald Ave & 28th St,CREDITCARD,TRANSITCARD,KEY,True,https://chi.lft.to/lastmile_qr_scan,https://chi.lft.to/lastmile_qr_scan,,classic,207,False,TA1307000153,15,False,-87.645368,207,a3a7c852-a135-11e9-9cda-0a87ae2ba916,,,,,,,,,,,,,
41.85491457576575,Laflin St & Cullerton St,CREDITCARD,TRANSITCARD,KEY,True,https://chi.lft.to/lastmile_qr_scan,https://chi.lft.to/lastmile_qr_scan,,classic,208,False,13307,15,False,-87.66355991363525,208,a3a7cd56-a135-11e9-9cda-0a87ae2ba916,,,,,,,,,,,,,
41.849527,Normal Ave & Archer Ave,CREDITCARD,TRANSITCARD,KEY,True,https://chi.lft.to/lastmile_qr_scan,https://chi.lft.to/lastmile_qr_scan,,classic,209,False,TA1308000014,11,False,-87.640591,209,a3a7d279-a135-11e9-9cda-0a87ae2ba916,,,,,,,,,,,,,
41.91050936666395,Leavitt St & North Ave,CREDITCARD,TRANSITCARD,KEY,True,https://chi.lft.to/lastmile_qr_scan,https://chi.lft.to/lastmile_qr_scan,,classic,213,False,TA1308000005,15,False,-87.6823890209198,213,a3a7e69e-a135-11e9-9cda-0a87ae2ba916,,,,,,,,,,,,,
41.88137,Damen Ave & Madison St,CREDITCARD,TRANSITCARD,KEY,True,https://chi.lft.to/lastmile_qr_scan,https://chi.lft.to/lastmile_qr_scan,,classic,215,False,13134,15,False,-87.67493,215,a3a7f0ba-a135-11e9-9cda-0a87ae2ba916,,,,,,,,,,,,,
41.903029,California Ave & Division St,CREDITCARD,TRANSITCARD,KEY,True,https://chi.lft.to/lastmile_qr_scan,https://chi.lft.to/lastmile_qr_scan,,classic,216,False,13256,15,False,-87.697474,216,a3a7f5ea-a135-11e9-9cda-0a87ae2ba916,,,,,,,,,,,,,
41.886616486027656,Elizabeth (May) St & Fulton St,CREDITCARD,TRANSITCARD,KEY,True,https://chi.lft.to/lastmile_qr_scan,https://chi.lft.to/lastmile_qr_scan,,classic,217,False,13197,15,False,-87.6580399274826,217,a3a7faf7-a135-11e9-9cda-0a87ae2ba916,,,,,,,,,,,,,
41.856802,Wells St & 19th St,CREDITCARD,TRANSITCARD,KEY,True,https://chi.lft.to/lastmile_qr_scan,https://chi.lft.to/lastmile_qr_scan,,classic,218,False,SL-006,11,False,-87.633879,218,a3a80009-a135-11e9-9cda-0a87ae2ba916,,,,,,,,,,,,,
41.918216,Clifton Ave & Armitage Ave,CREDITCARD,TRANSITCARD,KEY,True,https://chi.lft.to/lastmile_qr_scan,https://chi.lft.to/lastmile_qr_scan,,classic,223,False,TA1307000163,15,False,-87.656936,223,a3a817dc-a135-11e9-9cda-0a87ae2ba916,,,,,,,,,,,,,
41.939743,Racine Ave & Belmont Ave,CREDITCARD,TRANSITCARD,KEY,True,https://chi.lft.to/lastmile_qr_scan,https://chi.lft.to/lastmile_qr_scan,,classic,226,False,TA1308000019,15,False,-87.658865,226,a3a8275e-a135-11e9-9cda-0a87ae2ba916,,,,,,,,,,,,,
41.9406,Damen Ave & Melrose Ave,CREDITCARD,TRANSITCARD,KEY,True,https://chi.lft.to/lastmile_qr_scan,https://chi.lft.to/lastmile_qr_scan,,classic,228,False,13143,15,False,-87.6785,228,a3a83181-a135-11e9-9cda-0a87ae2ba916,,,,,,,,,,,,,
41.883165,Sangamon St & Washington Blvd,CREDITCARD,TRANSITCARD,KEY,True,https://chi.lft.to/lastmile_qr_scan,https://chi.lft.to/lastmile_qr_scan,,classic,233,False,13409,15,False,-87.6511,233,a3a84ab4-a135-11e9-9cda-0a87ae2ba916,,,,,,,,,,,,,
41.907626,Sedgwick St & Schiller St,CREDITCARD,TRANSITCARD,KEY,True,https://chi.lft.to/lastmile_qr_scan,https://chi.lft.to/lastmile_qr_scan,,classic,236,False,TA1307000143,15,False,-87.638566,236,a3a854bf-a135-11e9-9cda-0a87ae2ba916,,,,,,,,,,,,,
41.961406,Wolcott (Ravenswood) Ave & Montrose Ave,CREDITCARD,TRANSITCARD,KEY,True,https://chi.lft.to/lastmile_qr_scan,https://chi.lft.to/lastmile_qr_scan,,classic,238,False,TA1307000144,15,False,-87.676169,238,a3a85eda-a135-11e9-9cda-0a87ae2ba916,,,,,,,,,,,,,
41.967094,Damen Ave & Leland Ave,CREDITCARD,TRANSITCARD,KEY,True,https://chi.lft.to/lastmile_qr_scan,https://chi.lft.to/lastmile_qr_scan,,classic,242,False,TA1307000158,15,False,-87.679028,242,a3a87631-a135-11e9-9cda-0a87ae2ba916,,,,,,,,,,,,,
41.963004,Lincoln Ave & Sunnyside Ave,CREDITCARD,TRANSITCARD,KEY,True,https://chi.lft.to/lastmile_qr_scan,https://chi.lft.to/lastmile_qr_scan,,classic,243,False,TA1307000156,15,False,-87.684781,243,a3a87b3f-a135-11e9-9cda-0a87ae2ba916,,,,,,,,,,,,,
41.956057,Ashland Ave & Belle Plaine Ave,CREDITCARD,TRANSITCARD,KEY,True,https://chi.lft.to/lastmile_qr_scan,https://chi.lft.to/lastmile_qr_scan,,classic,246,False,13249,11,False,-87.668835,246,a3a88a6d-a135-11e9-9cda-0a87ae2ba916,,,,,,,,,,,,,
41.967968,Clarendon Ave & Leland Ave,CREDITCARD,TRANSITCARD,KEY,True,https://chi.lft.to/lastmile_qr_scan,https://chi.lft.to/lastmile_qr_scan,,classic,251,False,TA1307000119,15,False,-87.650001,251,a3a9309d-a135-11e9-9cda-0a87ae2ba916,,,,,,,,,,,,,
41.809835,Greenwood Ave & 47th St,CREDITCARD,TRANSITCARD,KEY,True,https://chi.lft.to/lastmile_qr_scan,https://chi.lft.to/lastmile_qr_scan,,classic,252,False,TA1308000002,15,False,-87.599383,252,a3a93622-a135-11e9-9cda-0a87ae2ba916,,,,,,,,,,,,,
41.968812,Winthrop Ave & Lawrence Ave,CREDITCARD,TRANSITCARD,KEY,True,https://chi.lft.to/lastmile_qr_scan,https://chi.lft.to/lastmile_qr_scan,,classic,253,False,TA1308000021,15,False,-87.657659,253,a3a93b6d-a135-11e9-9cda-0a87ae2ba916,,,,,,,,,,,,,
41.954383,Pine Grove Ave & Irving Park Rd,CREDITCARD,TRANSITCARD,KEY,True,https://chi.lft.to/lastmile_qr_scan,https://chi.lft.to/lastmile_qr_scan,,classic,254,False,TA1308000022,15,False,-87.648043,254,a3a940a2-a135-11e9-9cda-0a87ae2ba916,,,,,,,,,,,,,
41.952833,Broadway & Sheridan Rd,CREDITCARD,TRANSITCARD,KEY,True,https://chi.lft.to/lastmile_qr_scan,https://chi.lft.to/lastmile_qr_scan,,classic,256,False,13323,15,False,-87.649993,256,a3a94bc8-a135-11e9-9cda-0a87ae2ba916,,,,,,,,,,,,,
41.948797,Lincoln Ave & Waveland Ave,CREDITCARD,TRANSITCARD,KEY,True,https://chi.lft.to/lastmile_qr_scan,https://chi.lft.to/lastmile_qr_scan,,classic,257,False,13253,15,False,-87.675278,257,a3a95142-a135-11e9-9cda-0a87ae2ba916,,,,,,,,,,,,,
41.91849115368695,California Ave & Francis Pl (Temp),CREDITCARD,TRANSITCARD,KEY,True,https://chi.lft.to/lastmile_qr_scan,https://chi.lft.to/lastmile_qr_scan,,classic,259,False,13259,15,False,-87.69742280244827,259,a3a95b7a-a135-11e9-9cda-0a87ae2ba916,,,,,,,,,,,,,
41.871514,Hermitage Ave & Polk St,CREDITCARD,TRANSITCARD,KEY,True,https://chi.lft.to/lastmile_qr_scan,https://chi.lft.to/lastmile_qr_scan,,classic,261,False,13080,15,False,-87.669886,261,a3a965b2-a135-11e9-9cda-0a87ae2ba916,,,,,,,,,,,,,
41.827059,Halsted St & 37th St,CREDITCARD,TRANSITCARD,KEY,True,https://chi.lft.to/lastmile_qr_scan,https://chi.lft.to/lastmile_qr_scan,,classic,262,False,TA1307000161,11,False,-87.64572,262,a3a96aca-a135-11e9-9cda-0a87ae2ba916,,,,,,,,,,,,,
41.836208,Rhodes Ave & 32nd St,CREDITCARD,TRANSITCARD,KEY,True,https://chi.lft.to/lastmile_qr_scan,https://chi.lft.to/lastmile_qr_scan,,classic,263,False,13215,11,False,-87.613533,263,a3a96fd5-a135-11e9-9cda-0a87ae2ba916,,,,,,,,,,,,,
41.822985,Cottage Grove Ave & Oakwood Blvd,CREDITCARD,TRANSITCARD,KEY,True,https://chi.lft.to/lastmile_qr_scan,https://chi.lft.to/lastmile_qr_scan,,classic,265,False,TA1308000038,15,False,-87.6071,265,a3a97a01-a135-11e9-9cda-0a87ae2ba916,,,,,,,,,,,,,
41.809443,Lake Park Ave & 47th St,CREDITCARD,TRANSITCARD,KEY,True,https://chi.lft.to/lastmile_qr_scan,https://chi.lft.to/lastmile_qr_scan,,classic,267,False,TA1308000035,15,False,-87.591875,267,a3a98429-a135-11e9-9cda-0a87ae2ba916,,,,,,,,,,,,,
41.7586696704,Stony Island Ave & 75th St,CREDITCARD,TRANSITCARD,KEY,True,https://chi.lft.to/lastmile_qr_scan,https://chi.lft.to/lastmile_qr_scan,,classic,270,False,KA1503000019,11,False,-87.586882871,270,a3a98e37-a135-11e9-9cda-0a87ae2ba916,,,,,,,,,,,,,
41.816499,Cottage Grove Ave & 43rd St,CREDITCARD,TRANSITCARD,KEY,True,https://chi.lft.to/lastmile_qr_scan,https://chi.lft.to/lastmile_qr_scan,,classic,271,False,TA1308000023,11,False,-87.606582,271,a3a99346-a135-11e9-9cda-0a87ae2ba916,,,,,,,,,,,,,
41.838842,Indiana Ave & 31st St,CREDITCARD,TRANSITCARD,KEY,True,https://chi.lft.to/lastmile_qr_scan,https://chi.lft.to/lastmile_qr_scan,,classic,272,False,TA1308000036,11,False,-87.621857,272,a3a9984a-a135-11e9-9cda-0a87ae2ba916,,,,,,,,,,,,,
41.861267,Racine Ave & 15th St,CREDITCARD,TRANSITCARD,KEY,True,https://chi.lft.to/lastmile_qr_scan,https://chi.lft.to/lastmile_qr_scan,,classic,274,False,13304,15,False,-87.656625,274,a3a9a24f-a135-11e9-9cda-0a87ae2ba916,,,,,,,,,,,,,
41.91044,California Ave & North Ave,CREDITCARD,TRANSITCARD,KEY,True,https://chi.lft.to/lastmile_qr_scan,https://chi.lft.to/lastmile_qr_scan,,classic,276,False,13258,11,False,-87.6972,276,a3a9acc5-a135-11e9-9cda-0a87ae2ba916,,,,,,,,,,,,,
41.83101432992121,Wallace St & 35th St,CREDITCARD,TRANSITCARD,KEY,True,https://chi.lft.to/lastmile_qr_scan,https://chi.lft.to/lastmile_qr_scan,,classic,278,False,TA1308000045,15,False,-87.64118358492851,278,a3a9b6e9-a135-11e9-9cda-0a87ae2ba916,,,,,,,,,,,,,
41.830661,Halsted St & 35th St,CREDITCARD,TRANSITCARD,KEY,True,https://chi.lft.to/lastmile_qr_scan,https://chi.lft.to/lastmile_qr_scan,,classic,279,False,TA1308000043,15,False,-87.647172,279,a3a9bbf0-a135-11e9-9cda-0a87ae2ba916,,,,,,,,,,,,,
41.8378,Morgan St & 31st St,CREDITCARD,TRANSITCARD,KEY,True,https://chi.lft.to/lastmile_qr_scan,https://chi.lft.to/lastmile_qr_scan,,classic,280,False,TA1308000046,11,False,-87.65114,280,a3a9c0f6-a135-11e9-9cda-0a87ae2ba916,,,,,,,,,,,,,
41.84847,Western Ave & 24th St,CREDITCARD,TRANSITCARD,KEY,True,https://chi.lft.to/lastmile_qr_scan,https://chi.lft.to/lastmile_qr_scan,,classic,281,False,TA1309000003,7,False,-87.685109,281,a3a9c5f7-a135-11e9-9cda-0a87ae2ba916,,,,,,,,,,,,,
41.864883,Halsted St & Maxwell St,CREDITCARD,TRANSITCARD,KEY,True,https://chi.lft.to/lastmile_qr_scan,https://chi.lft.to/lastmile_qr_scan,,classic,282,False,TA1309000001,15,False,-87.647071,282,a3a9cafa-a135-11e9-9cda-0a87ae2ba916,,,,,,,,,,,,,
41.87943409140013,Franklin St & Adams St (Temp),CREDITCARD,TRANSITCARD,KEY,True,https://chi.lft.to/lastmile_qr_scan,https://chi.lft.to/lastmile_qr_scan,,classic,286,False,TA1309000008,15,False,-87.63550400733948,286,a3a9df3a-a135-11e9-9cda-0a87ae2ba916,,,,,,,,,,,,,
41.918084,Larrabee St & Armitage Ave,CREDITCARD,TRANSITCARD,KEY,True,https://chi.lft.to/lastmile_qr_scan,https://chi.lft.to/lastmile_qr_scan,,classic,288,False,TA1309000006,15,False,-87.643749,288,a3a9ecff-a135-11e9-9cda-0a87ae2ba916,,,,,,,,,,,,,
41.921525,Kedzie Ave & Palmer Ct,CREDITCARD,TRANSITCARD,KEY,True,https://chi.lft.to/lastmile_qr_scan,https://chi.lft.to/lastmile_qr_scan,,classic,290,False,13292,15,False,-87.707322,290,a3a9f76a-a135-11e9-9cda-0a87ae2ba916,,,,,,,,,,,,,
41.957081,Southport Ave & Clark St,CREDITCARD,TRANSITCARD,KEY,True,https://chi.lft.to/lastmile_qr_scan,https://chi.lft.to/lastmile_qr_scan,,classic,292,False,TA1308000047,11,False,-87.664199,292,a3aa017e-a135-11e9-9cda-0a87ae2ba916,,,,,,,,,,,,,
41.961507,Paulina St & Montrose Ave,CREDITCARD,TRANSITCARD,KEY,True,https://chi.lft.to/lastmile_qr_scan,https://chi.lft.to/lastmile_qr_scan,,classic,297,False,TA1309000021,15,False,-87.671387,297,a3aa1b5b-a135-11e9-9cda-0a87ae2ba916,,,,,,,,,,,,,
41.95600355078549,Lincoln Ave & Belle Plaine Ave,CREDITCARD,TRANSITCARD,KEY,True,https://chi.lft.to/lastmile_qr_scan,https://chi.lft.to/lastmile_qr_scan,,classic,298,False,TA1309000026,15,False,-87.68016144633293,298,a3aa2078-a135-11e9-9cda-0a87ae2ba916,,,,,,,,,,,,,
41.94367,Halsted St & Roscoe St,CREDITCARD,TRANSITCARD,KEY,True,https://chi.lft.to/lastmile_qr_scan,https://chi.lft.to/lastmile_qr_scan,,classic,299,False,TA1309000025,15,False,-87.64895,299,a3aa259c-a135-11e9-9cda-0a87ae2ba916,,,,,,,,,,,,,
41.949074,Broadway & Waveland Ave,CREDITCARD,TRANSITCARD,KEY,True,https://chi.lft.to/lastmile_qr_scan,https://chi.lft.to/lastmile_qr_scan,,classic,304,False,13325,15,False,-87.648636,304,a3aa4017-a135-11e9-9cda-0a87ae2ba916,,,,,,,,,,,,,
41.920771,Southport Ave & Clybourn Ave,CREDITCARD,TRANSITCARD,KEY,True,https://chi.lft.to/lastmile_qr_scan,https://chi.lft.to/lastmile_qr_scan,,classic,307,False,TA1309000030,15,False,-87.663712,307,a3aa4f80-a135-11e9-9cda-0a87ae2ba916,,,,,,,,,,,,,
41.943403,Seeley Ave & Roscoe St,CREDITCARD,TRANSITCARD,KEY,True,https://chi.lft.to/lastmile_qr_scan,https://chi.lft.to/lastmile_qr_scan,,classic,308,False,13144,11,False,-87.679618,308,a3aa54a0-a135-11e9-9cda-0a87ae2ba916,,,,,,,,,,,,,
41.917805,Leavitt St & Armitage Ave,CREDITCARD,TRANSITCARD,KEY,True,https://chi.lft.to/lastmile_qr_scan,https://chi.lft.to/lastmile_qr_scan,,classic,309,False,TA1309000029,11,False,-87.682437,309,a3aa59bb-a135-11e9-9cda-0a87ae2ba916,,,,,,,,,,,,,
41.920082,Damen Ave & Charleston St,CREDITCARD,TRANSITCARD,KEY,True,https://chi.lft.to/lastmile_qr_scan,https://chi.lft.to/lastmile_qr_scan,,classic,310,False,13288,11,False,-87.677855,310,a3aa5ed1-a135-11e9-9cda-0a87ae2ba916,,,,,,,,,,,,,
41.95786652415174,Clarendon Ave & Gordon Ter,CREDITCARD,TRANSITCARD,KEY,True,https://chi.lft.to/lastmile_qr_scan,https://chi.lft.to/lastmile_qr_scan,,classic,312,False,13379,15,False,-87.64950513839722,312,a3aa692e-a135-11e9-9cda-0a87ae2ba916,,,,,,,,,,,,,
41.957921,Ravenswood Ave & Berteau Ave,CREDITCARD,TRANSITCARD,KEY,True,https://chi.lft.to/lastmile_qr_scan,https://chi.lft.to/lastmile_qr_scan,,classic,314,False,TA1309000018,15,False,-87.673567,314,a3aa7373-a135-11e9-9cda-0a87ae2ba916,,,,,,,,,,,,,
41.954177,Southport Ave & Irving Park Rd,CREDITCARD,TRANSITCARD,KEY,True,https://chi.lft.to/lastmile_qr_scan,https://chi.lft.to/lastmile_qr_scan,,classic,318,False,TA1309000043,15,False,-87.664358,318,a3aa8ca0-a135-11e9-9cda-0a87ae2ba916,,,,,,,,,,,,,
41.93258963429789,Greenview Ave & Diversey Pkwy,CREDITCARD,TRANSITCARD,KEY,True,https://chi.lft.to/lastmile_qr_scan,https://chi.lft.to/lastmile_qr_scan,,classic,319,False,13294,15,False,-87.66593635082245,319,a3aa91f4-a135-11e9-9cda-0a87ae2ba916,,,,,,,,,,,,,
41.93132,Stockton Dr & Wrightwood Ave,CREDITCARD,TRANSITCARD,KEY,True,https://chi.lft.to/lastmile_qr_scan,https://chi.lft.to/lastmile_qr_scan,,classic,324,False,13276,15,False,-87.638742,324,a3aaaba2-a135-11e9-9cda-0a87ae2ba916,,,,,,,,,,,,,
41.831379,Calumet Ave & 35th St,CREDITCARD,TRANSITCARD,KEY,True,https://chi.lft.to/lastmile_qr_scan,https://chi.lft.to/lastmile_qr_scan,,classic,335,False,13345,15,False,-87.618034,335,a3aae35a-a135-11e9-9cda-0a87ae2ba916,,,,,,,,,,,,,
41.809855,Cottage Grove Ave & 47th St,CREDITCARD,TRANSITCARD,KEY,True,https://chi.lft.to/lastmile_qr_scan,https://chi.lft.to/lastmile_qr_scan,,classic,336,False,TA1309000053,15,False,-87.606755,336,a3aae870-a135-11e9-9cda-0a87ae2ba916,,,,,,,,,,,,,
41.857611,Calumet Ave & 18th St,CREDITCARD,TRANSITCARD,KEY,True,https://chi.lft.to/lastmile_qr_scan,https://chi.lft.to/lastmile_qr_scan,,classic,338,False,13102,15,False,-87.619407,338,a3aaf2ac-a135-11e9-9cda-0a87ae2ba916,,,,,,,,,,,,,
41.838198,Emerald Ave & 31st St,CREDITCARD,TRANSITCARD,KEY,True,https://chi.lft.to/lastmile_qr_scan,https://chi.lft.to/lastmile_qr_scan,,classic,339,False,TA1309000055,11,False,-87.645143,339,a3aaf7bc-a135-11e9-9cda-0a87ae2ba916,,,,,,,,,,,,,
41.929546,Clark St & Wrightwood Ave,CREDITCARD,TRANSITCARD,KEY,True,https://chi.lft.to/lastmile_qr_scan,https://chi.lft.to/lastmile_qr_scan,,classic,340,False,TA1305000014,15,False,-87.643118,340,a3aafccb-a135-11e9-9cda-0a87ae2ba916,,,,,,,,,,,,,
41.928887,Racine Ave & Wrightwood Ave,CREDITCARD,TRANSITCARD,KEY,True,https://chi.lft.to/lastmile_qr_scan,https://chi.lft.to/lastmile_qr_scan,,classic,343,False,TA1309000059,15,False,-87.658971,343,a3ab8bee-a135-11e9-9cda-0a87ae2ba916,,,,,,,,,,,,,
41.8538040657915,California Ave & 21st St,CREDITCARD,TRANSITCARD,KEY,True,https://chi.lft.to/lastmile_qr_scan,https://chi.lft.to/lastmile_qr_scan,,classic,348,False,13096,15,False,-87.69574239850043,348,a3ac213b-a135-11e9-9cda-0a87ae2ba916,,,,,,,,,,,,,
41.929143,Halsted St & Wrightwood Ave,CREDITCARD,TRANSITCARD,KEY,True,https://chi.lft.to/lastmile_qr_scan,https://chi.lft.to/lastmile_qr_scan,,classic,349,False,TA1309000061,15,False,-87.649077,349,a3ac2671-a135-11e9-9cda-0a87ae2ba916,,,,,,,,,,,,,
41.803038,Cottage Grove Ave & 51st St,CREDITCARD,TRANSITCARD,KEY,True,https://chi.lft.to/lastmile_qr_scan,https://chi.lft.to/lastmile_qr_scan,,classic,351,False,TA1309000067,15,False,-87.606615,351,a3ac30c5-a135-11e9-9cda-0a87ae2ba916,,,,,,,,,,,,,
41.77351755125,Jeffery Blvd & 67th St,CREDITCARD,TRANSITCARD,KEY,True,https://chi.lft.to/lastmile_qr_scan,https://chi.lft.to/lastmile_qr_scan,,classic,352,False,KA1503000030,11,False,-87.5771428255,352,a3ac35ed-a135-11e9-9cda-0a87ae2ba916,,,,,,,,,,,,,
42.01256011541,Clark St & Touhy Ave,CREDITCARD,TRANSITCARD,KEY,True,https://chi.lft.to/lastmile_qr_scan,https://chi.lft.to/lastmile_qr_scan,,classic,353,False,RP-007,15,False,-87.6743671152,353,a3ac3b03-a135-11e9-9cda-0a87ae2ba916,,,,,,,,,,,,,
42.01058656284,Sheridan Rd & Greenleaf Ave,CREDITCARD,TRANSITCARD,KEY,True,https://chi.lft.to/lastmile_qr_scan,https://chi.lft.to/lastmile_qr_scan,,classic,354,False,KA1504000159,15,False,-87.6624120948,354,a3ac4024-a135-11e9-9cda-0a87ae2ba916,,,,,,,,,,,,,
41.773643,South Shore Dr & 67th St,CREDITCARD,TRANSITCARD,KEY,True,https://chi.lft.to/lastmile_qr_scan,https://chi.lft.to/lastmile_qr_scan,,classic,355,False,KA1503000029,15,False,-87.567514,355,a3ac4548-a135-11e9-9cda-0a87ae2ba916,,,,,,,,,,,,,
41.7664929373,Stony Island Ave & 71st St,CREDITCARD,TRANSITCARD,KEY,True,https://chi.lft.to/lastmile_qr_scan,https://chi.lft.to/lastmile_qr_scan,,classic,356,False,KA1503000045,11,False,-87.5864608775,356,a3ac4a7c-a135-11e9-9cda-0a87ae2ba916,,,,,,,,,,,,,
41.89939028549696,Halsted St & North Branch St,CREDITCARD,TRANSITCARD,KEY,True,https://chi.lft.to/lastmile_qr_scan,https://chi.lft.to/lastmile_qr_scan,,classic,365,False,KA1504000117,15,False,-87.64854490756989,365,a3ac7444-a135-11e9-9cda-0a87ae2ba916,,,,,,,,,,,,,
41.84163253965,Loomis St & Archer Ave,CREDITCARD,TRANSITCARD,KEY,True,https://chi.lft.to/lastmile_qr_scan,https://chi.lft.to/lastmile_qr_scan,,classic,366,False,KA1503000040,11,False,-87.6574349533,366,a3ac7978-a135-11e9-9cda-0a87ae2ba916,,,,,,,,,,,,,
41.83068856472101,Racine Ave & 35th St,CREDITCARD,TRANSITCARD,KEY,True,https://chi.lft.to/lastmile_qr_scan,https://chi.lft.to/lastmile_qr_scan,,classic,367,False,15446,15,False,-87.65621066093445,367,a3ac7e9a-a135-11e9-9cda-0a87ae2ba916,,,,,,,,,,,,,
41.83010465416,Wood St & 35th St,CREDITCARD,TRANSITCARD,KEY,True,https://chi.lft.to/lastmile_qr_scan,https://chi.lft.to/lastmile_qr_scan,,classic,369,False,KA1503000066,11,False,-87.6702983089,369,a3ac88db-a135-11e9-9cda-0a87ae2ba916,,,,,,,,,,,,,
41.85418424947,Calumet Ave & 21st St,CREDITCARD,TRANSITCARD,KEY,True,https://chi.lft.to/lastmile_qr_scan,https://chi.lft.to/lastmile_qr_scan,,classic,370,False,15546,15,False,-87.6191537415,370,a3ac8dfb-a135-11e9-9cda-0a87ae2ba916,,,,,,,,,,,,,
41.89546530305,Kedzie Ave & Chicago Ave,CREDITCARD,TRANSITCARD,KEY,True,https://chi.lft.to/lastmile_qr_scan,https://chi.lft.to/lastmile_qr_scan,,classic,373,False,KA1504000114,11,False,-87.7061278837,373,a3ac9834-a135-11e9-9cda-0a87ae2ba916,,,,,,,,,,,,,
41.89046879243862,Sacramento Blvd & Franklin Blvd,CREDITCARD,TRANSITCARD,KEY,True,https://chi.lft.to/lastmile_qr_scan,https://chi.lft.to/lastmile_qr_scan,,classic,375,False,KA1504000113,11,False,-87.70260751247406,375,a3aca268-a135-11e9-9cda-0a87ae2ba916,,,,,,,,,,,,,
41.88460328501,Kedzie Ave & Lake St,CREDITCARD,TRANSITCARD,KEY,True,https://chi.lft.to/lastmile_qr_scan,https://chi.lft.to/lastmile_qr_scan,,classic,377,False,KA1504000106,15,False,-87.7063037436,377,a3acacbc-a135-11e9-9cda-0a87ae2ba916,,,,,,,,,,,,,
41.88445395657,California Ave & Lake St,CREDITCARD,TRANSITCARD,KEY,True,https://chi.lft.to/lastmile_qr_scan,https://chi.lft.to/lastmile_qr_scan,,classic,378,False,15666,11,False,-87.6962981368,378,a3acb1de-a135-11e9-9cda-0a87ae2ba916,,,,,,,,,,,,,
41.8797877089,Western Ave & Monroe St,CREDITCARD,TRANSITCARD,KEY,True,https://chi.lft.to/lastmile_qr_scan,https://chi.lft.to/lastmile_qr_scan,,classic,381,False,15667,15,False,-87.686112808,381,a3acb6f3-a135-11e9-9cda-0a87ae2ba916,,,,,,,,,,,,,
41.80183164049,Halsted St & 51st St,CREDITCARD,TRANSITCARD,KEY,True,https://chi.lft.to/lastmile_qr_scan,https://chi.lft.to/lastmile_qr_scan,,classic,384,False,KA1503000010,11,False,-87.645213904,384,a3acc649-a135-11e9-9cda-0a87ae2ba916,,,,,,,,,,,,,
41.794982,Princeton Ave & Garfield Blvd,CREDITCARD,TRANSITCARD,KEY,True,https://chi.lft.to/lastmile_qr_scan,https://chi.lft.to/lastmile_qr_scan,,classic,385,False,KA1503000013,11,False,-87.633124,385,a3accb60-a135-11e9-9cda-0a87ae2ba916,,,,,,,,,,,,,
41.79292964599,Halsted St & 56th St,CREDITCARD,TRANSITCARD,KEY,True,https://chi.lft.to/lastmile_qr_scan,https://chi.lft.to/lastmile_qr_scan,,classic,386,False,KA1503000011,11,False,-87.6449900565,386,a3acd078-a135-11e9-9cda-0a87ae2ba916,,,,,,,,,,,,,
41.77938114228,Halsted & 63rd - Kennedy-King Vaccination Site,CREDITCARD,TRANSITCARD,KEY,True,https://chi.lft.to/lastmile_qr_scan,https://chi.lft.to/lastmile_qr_scan,,classic,388,False,KA1503000055,11,False,-87.6446208145,388,a3acd5b1-a135-11e9-9cda-0a87ae2ba916,,,,,,,,,,,,,
41.78007963264,Wentworth Ave & 63rd St,CREDITCARD,TRANSITCARD,KEY,True,https://chi.lft.to/lastmile_qr_scan,https://chi.lft.to/lastmile_qr_scan,,classic,390,False,KA1503000025,11,False,-87.6297463052,390,a3acdae2-a135-11e9-9cda-0a87ae2ba916,,,,,,,,,,,,,
41.76906172032,Halsted St & 69th St,CREDITCARD,TRANSITCARD,KEY,True,https://chi.lft.to/lastmile_qr_scan,https://chi.lft.to/lastmile_qr_scan,,classic,391,False,15597,11,False,-87.6446135779,391,a3acdff9-a135-11e9-9cda-0a87ae2ba916,,,,,,,,,,,,,
41.76929308995,Perry Ave & 69th St,CREDITCARD,TRANSITCARD,KEY,True,https://chi.lft.to/lastmile_qr_scan,https://chi.lft.to/lastmile_qr_scan,,classic,392,False,KA1503000047,11,False,-87.6281959291,392,a3ace51b-a135-11e9-9cda-0a87ae2ba916,,,,,,,,,,,,,
41.76550800581,Calumet Ave & 71st St,CREDITCARD,TRANSITCARD,KEY,True,https://chi.lft.to/lastmile_qr_scan,https://chi.lft.to/lastmile_qr_scan,,classic,393,False,15599,11,False,-87.616917925,393,a3acea44-a135-11e9-9cda-0a87ae2ba916,,,,,,,,,,,,,
41.870816,Clark St & 9th St (AMLI),CREDITCARD,TRANSITCARD,KEY,True,https://chi.lft.to/lastmile_qr_scan,https://chi.lft.to/lastmile_qr_scan,,classic,394,False,SL-009,15,False,-87.631246,394,a3acef62-a135-11e9-9cda-0a87ae2ba916,,,,,,,,,,,,,
41.75712006802,Jeffery Blvd & 76th St,CREDITCARD,TRANSITCARD,KEY,True,https://chi.lft.to/lastmile_qr_scan,https://chi.lft.to/lastmile_qr_scan,,classic,395,False,KA1503000028,11,False,-87.5758393587,395,a3acf4eb-a135-11e9-9cda-0a87ae2ba916,,,,,,,,,,,,,
41.758768,Yates Blvd & 75th St,CREDITCARD,TRANSITCARD,KEY,True,https://chi.lft.to/lastmile_qr_scan,https://chi.lft.to/lastmile_qr_scan,,classic,396,False,KA1503000024,11,False,-87.56644,396,a3acfa38-a135-11e9-9cda-0a87ae2ba916,,,,,,,,,,,,,
41.75787144829,Rainbow Beach,CREDITCARD,TRANSITCARD,KEY,True,https://chi.lft.to/lastmile_qr_scan,https://chi.lft.to/lastmile_qr_scan,,classic,398,False,KA1503000049,15,False,-87.54938625,398,a3ad0490-a135-11e9-9cda-0a87ae2ba916,,,,,,,,,,,,,
41.76218896038,South Shore Dr & 74th St,CREDITCARD,TRANSITCARD,KEY,True,https://chi.lft.to/lastmile_qr_scan,https://chi.lft.to/lastmile_qr_scan,,classic,399,False,KA1503000020,11,False,-87.55927465,399,a3ad09b2-a135-11e9-9cda-0a87ae2ba916,,,,,,,,,,,,,
41.76571903697,Cottage Grove Ave & 71st St,CREDITCARD,TRANSITCARD,KEY,True,https://chi.lft.to/lastmile_qr_scan,https://chi.lft.to/lastmile_qr_scan,,classic,400,False,KA1503000003,11,False,-87.604959713,400,a3ad0ecb-a135-11e9-9cda-0a87ae2ba916,,,,,,,,,,,,,
41.842733,Shields Ave & 28th Pl,CREDITCARD,TRANSITCARD,KEY,True,https://chi.lft.to/lastmile_qr_scan,https://chi.lft.to/lastmile_qr_scan,,classic,401,False,15443,11,False,-87.635491,401,a3ad13e4-a135-11e9-9cda-0a87ae2ba916,,,,,,,,,,,,,
41.838464,Shields Ave & 31st St,CREDITCARD,TRANSITCARD,KEY,True,https://chi.lft.to/lastmile_qr_scan,https://chi.lft.to/lastmile_qr_scan,,classic,402,False,KA1503000038,15,False,-87.635406,402,a3ad1900-a135-11e9-9cda-0a87ae2ba916,,,,,,,,,,,,,
41.83452988563,Wentworth Ave & 33rd St,CREDITCARD,TRANSITCARD,KEY,True,https://chi.lft.to/lastmile_qr_scan,https://chi.lft.to/lastmile_qr_scan,,classic,403,False,15445,15,False,-87.6318229814,403,a3ad1e12-a135-11e9-9cda-0a87ae2ba916,,,,,,,,,,,,,
41.830777,Wentworth Ave & 35th St,CREDITCARD,TRANSITCARD,KEY,True,https://chi.lft.to/lastmile_qr_scan,https://chi.lft.to/lastmile_qr_scan,,classic,405,False,KA1503000005,15,False,-87.632504,405,a3ad2322-a135-11e9-9cda-0a87ae2ba916,,,,,,,,,,,,,
41.82301523798,State St & Pershing Rd,CREDITCARD,TRANSITCARD,KEY,True,https://chi.lft.to/lastmile_qr_scan,https://chi.lft.to/lastmile_qr_scan,,classic,407,False,15449,11,False,-87.6265680185,407,a3ad2d57-a135-11e9-9cda-0a87ae2ba916,,,,,,,,,,,,,
41.819102,Union Ave & Root St,CREDITCARD,TRANSITCARD,KEY,True,https://chi.lft.to/lastmile_qr_scan,https://chi.lft.to/lastmile_qr_scan,,classic,408,False,KA1503000032,11,False,-87.643278,408,a3ad327e-a135-11e9-9cda-0a87ae2ba916,,,,,,,,,,,,,
41.81620767856,Shields Ave & 43rd St,CREDITCARD,TRANSITCARD,KEY,True,https://chi.lft.to/lastmile_qr_scan,https://chi.lft.to/lastmile_qr_scan,,classic,409,False,KA1503000001,11,False,-87.6348193497,409,a3ad37c2-a135-11e9-9cda-0a87ae2ba916,,,,,,,,,,,,,
41.81665889302,Prairie Ave & 43rd St,CREDITCARD,TRANSITCARD,KEY,True,https://chi.lft.to/lastmile_qr_scan,https://chi.lft.to/lastmile_qr_scan,,classic,410,False,KA1503000027,15,False,-87.6194124619,410,a3ad3d08-a135-11e9-9cda-0a87ae2ba916,,,,,,,,,,,,,
41.80813391481,Halsted St & 47th Pl,CREDITCARD,TRANSITCARD,KEY,True,https://chi.lft.to/lastmile_qr_scan,https://chi.lft.to/lastmile_qr_scan,,classic,411,False,KA1503000051,11,False,-87.6456165545,411,a3ad42c3-a135-11e9-9cda-0a87ae2ba916,,,,,,,,,,,,,
41.80931770924,Princeton Ave & 47th St,CREDITCARD,TRANSITCARD,KEY,True,https://chi.lft.to/lastmile_qr_scan,https://chi.lft.to/lastmile_qr_scan,,classic,412,False,KA1503000009,11,False,-87.633449288,412,a3ad47f8-a135-11e9-9cda-0a87ae2ba916,,,,,,,,,,,,,
41.81409271048,Woodlawn Ave & Lake Park Ave,CREDITCARD,TRANSITCARD,KEY,True,https://chi.lft.to/lastmile_qr_scan,https://chi.lft.to/lastmile_qr_scan,,classic,413,False,KA1503000065,15,False,-87.5970051479,413,a3ad4d1b-a135-11e9-9cda-0a87ae2ba916,,,,,,,,,,,,,
41.870257,Canal St & Taylor St,CREDITCARD,TRANSITCARD,KEY,True,https://chi.lft.to/lastmile_qr_scan,https://chi.lft.to/lastmile_qr_scan,,classic,414,False,15550,15,False,-87.639474,414,a3ad523f-a135-11e9-9cda-0a87ae2ba916,,,,,,,,,,,,,
41.80229465088,Calumet Ave & 51st St,CREDITCARD,TRANSITCARD,KEY,True,https://chi.lft.to/lastmile_qr_scan,https://chi.lft.to/lastmile_qr_scan,,classic,415,False,15470,11,False,-87.6180535802,415,a3ad5764-a135-11e9-9cda-0a87ae2ba916,,,,,,,,,,,,,
41.805772,Dorchester Ave & 49th St,CREDITCARD,TRANSITCARD,KEY,True,https://chi.lft.to/lastmile_qr_scan,https://chi.lft.to/lastmile_qr_scan,,classic,416,False,KA1503000069,15,False,-87.592464,416,a3ad5c90-a135-11e9-9cda-0a87ae2ba916,,,,,,,,,,,,,
41.79933626261,Ellis Ave & 53rd St,CREDITCARD,TRANSITCARD,KEY,True,https://chi.lft.to/lastmile_qr_scan,https://chi.lft.to/lastmile_qr_scan,,classic,418,False,KA1503000052,11,False,-87.6009581145,418,a3ad66e6-a135-11e9-9cda-0a87ae2ba916,,,,,,,,,,,,,
41.79949429373,Lake Park Ave & 53rd St,CREDITCARD,TRANSITCARD,KEY,True,https://chi.lft.to/lastmile_qr_scan,https://chi.lft.to/lastmile_qr_scan,,classic,419,False,KA1503000059,15,False,-87.5864498959,419,a3ad6c01-a135-11e9-9cda-0a87ae2ba916,,,,,,,,,,,,,
41.79342945658,MLK Jr Dr & 56th St,CREDITCARD,TRANSITCARD,KEY,True,https://chi.lft.to/lastmile_qr_scan,https://chi.lft.to/lastmile_qr_scan,,classic,421,False,KA1503000073,11,False,-87.6158532619,421,a3ad7636-a135-11e9-9cda-0a87ae2ba916,,,,,,,,,,,,,
41.79156801058,DuSable Museum,CREDITCARD,TRANSITCARD,KEY,True,https://chi.lft.to/lastmile_qr_scan,https://chi.lft.to/lastmile_qr_scan,,classic,422,False,KA1503000075,11,False,-87.6078521774,422,a3ad7b51-a135-11e9-9cda-0a87ae2ba916,,,,,,,,,,,,,
41.78794281287,Harper Ave & 59th St,CREDITCARD,TRANSITCARD,KEY,True,https://chi.lft.to/lastmile_qr_scan,https://chi.lft.to/lastmile_qr_scan,,classic,425,False,KA1503000070,15,False,-87.5883151702,425,a3ad8aa3-a135-11e9-9cda-0a87ae2ba916,,,,,,,,,,,,,
41.78060094521422,Cottage Grove Ave & 63rd St,CREDITCARD,TRANSITCARD,KEY,True,https://chi.lft.to/lastmile_qr_scan,https://chi.lft.to/lastmile_qr_scan,,classic,427,False,KA1503000054,15,False,-87.60583609342575,427,a3ad95a7-a135-11e9-9cda-0a87ae2ba916,,,,,,,,,,,,,
41.7804056457,Dorchester Ave & 63rd St,CREDITCARD,TRANSITCARD,KEY,True,https://chi.lft.to/lastmile_qr_scan,https://chi.lft.to/lastmile_qr_scan,,classic,428,False,KA1503000046,11,False,-87.5914159893,428,a3ad9ad9-a135-11e9-9cda-0a87ae2ba916,,,,,,,,,,,,,
41.77372095205,Cottage Grove Ave & 67th St,CREDITCARD,TRANSITCARD,KEY,True,https://chi.lft.to/lastmile_qr_scan,https://chi.lft.to/lastmile_qr_scan,,classic,429,False,KA1503000031,11,False,-87.60563486,429,a3ada002-a135-11e9-9cda-0a87ae2ba916,,,,,,,,,,,,,
41.78008063659,MLK Jr Dr & 63rd St,CREDITCARD,TRANSITCARD,KEY,True,https://chi.lft.to/lastmile_qr_scan,https://chi.lft.to/lastmile_qr_scan,,classic,430,False,KA1503000053,11,False,-87.6159428567,430,a3ada52f-a135-11e9-9cda-0a87ae2ba916,,,,,,,,,,,,,
41.78414169317,Eberhart Ave & 61st St,CREDITCARD,TRANSITCARD,KEY,True,https://chi.lft.to/lastmile_qr_scan,https://chi.lft.to/lastmile_qr_scan,,classic,431,False,KA1503000033,11,False,-87.6133078304,431,a3adaa52-a135-11e9-9cda-0a87ae2ba916,,,,,,,,,,,,,
41.87359967462,Kedzie Ave & Harrison St,CREDITCARD,TRANSITCARD,KEY,True,https://chi.lft.to/lastmile_qr_scan,https://chi.lft.to/lastmile_qr_scan,,classic,433,False,KA1504000082,11,False,-87.7048707493,433,a3adb48a-a135-11e9-9cda-0a87ae2ba916,,,,,,,,,,,,,
41.86649278172,Kedzie Ave & Roosevelt Rd,CREDITCARD,TRANSITCARD,KEY,True,https://chi.lft.to/lastmile_qr_scan,https://chi.lft.to/lastmile_qr_scan,,classic,435,False,15682,11,False,-87.7064961757,435,a3adbedf-a135-11e9-9cda-0a87ae2ba916,,,,,,,,,,,,,
41.866624,Fairfield Ave & Roosevelt Rd,CREDITCARD,TRANSITCARD,KEY,True,https://chi.lft.to/lastmile_qr_scan,https://chi.lft.to/lastmile_qr_scan,,classic,436,False,KA1504000102,11,False,-87.694521,436,a3adc3f6-a135-11e9-9cda-0a87ae2ba916,,,,,,,,,,,,,
41.86193049278259,Washtenaw Ave & Ogden Ave,CREDITCARD,TRANSITCARD,KEY,True,https://chi.lft.to/lastmile_qr_scan,https://chi.lft.to/lastmile_qr_scan,,classic,437,False,KA1504000109,15,False,-87.69345045089722,437,a3adc925-a135-11e9-9cda-0a87ae2ba916,,,,,,,,,,,,,
41.854063503874464,Central Park Ave & Ogden Ave,CREDITCARD,TRANSITCARD,KEY,True,https://chi.lft.to/lastmile_qr_scan,https://chi.lft.to/lastmile_qr_scan,,classic,438,False,15685,15,False,-87.71511733531952,438,a3adce47-a135-11e9-9cda-0a87ae2ba916,,,,,,,,,,,,,
41.85353363213,Kedzie Ave & 21st St,CREDITCARD,TRANSITCARD,KEY,True,https://chi.lft.to/lastmile_qr_scan,https://chi.lft.to/lastmile_qr_scan,,classic,439,False,15686,11,False,-87.7050730318,439,a3add365-a135-11e9-9cda-0a87ae2ba916,,,,,,,,,,,,,
41.8481,Central Park Ave & 24th St,CREDITCARD,TRANSITCARD,KEY,True,https://chi.lft.to/lastmile_qr_scan,https://chi.lft.to/lastmile_qr_scan,,classic,440,False,15687,11,False,-87.715068,440,a3add889-a135-11e9-9cda-0a87ae2ba916,,,,,,,,,,,,,
41.84819094491,Kedzie Ave & 24th St,CREDITCARD,TRANSITCARD,KEY,True,https://chi.lft.to/lastmile_qr_scan,https://chi.lft.to/lastmile_qr_scan,,classic,441,False,KA1504000086,11,False,-87.7054137458,441,a3addda0-a135-11e9-9cda-0a87ae2ba916,,,,,,,,,,,,,
41.84910969176,California Ave & 23rd Pl,CREDITCARD,TRANSITCARD,KEY,True,https://chi.lft.to/lastmile_qr_scan,https://chi.lft.to/lastmile_qr_scan,,classic,442,False,15689,11,False,-87.6951398068,442,a3ade2c3-a135-11e9-9cda-0a87ae2ba916,,,,,,,,,,,,,
41.84453112462163,Millard Ave & 26th St,CREDITCARD,TRANSITCARD,KEY,True,https://chi.lft.to/lastmile_qr_scan,https://chi.lft.to/lastmile_qr_scan,,classic,443,False,KA1504000110,7,False,-87.71592199802399,443,a3ade7de-a135-11e9-9cda-0a87ae2ba916,,,,,,,,,,,,,
41.84447501366,Albany Ave & 26th St,CREDITCARD,TRANSITCARD,KEY,True,https://chi.lft.to/lastmile_qr_scan,https://chi.lft.to/lastmile_qr_scan,,classic,444,False,15691,11,False,-87.7020130128,444,a3aded13-a135-11e9-9cda-0a87ae2ba916,,,,,,,,,,,,,
41.8436799145765,California Ave & 26th St,CREDITCARD,TRANSITCARD,KEY,True,https://chi.lft.to/lastmile_qr_scan,https://chi.lft.to/lastmile_qr_scan,,classic,445,False,15692,11,False,-87.69496858119965,445,a3ae687f-a135-11e9-9cda-0a87ae2ba916,,,,,,,,,,,,,
41.84151770807,Western & 28th - Velasquez Institute Vaccination Site,CREDITCARD,TRANSITCARD,KEY,True,https://chi.lft.to/lastmile_qr_scan,https://chi.lft.to/lastmile_qr_scan,,classic,446,False,KA1504000168,11,False,-87.6851314409,446,a3ae6e48-a135-11e9-9cda-0a87ae2ba916,,,,,,,,,,,,,
42.00797192287,Glenwood Ave & Morse Ave,CREDITCARD,TRANSITCARD,KEY,True,https://chi.lft.to/lastmile_qr_scan,https://chi.lft.to/lastmile_qr_scan,,classic,447,False,KA1504000175,15,False,-87.6655023944,447,a3ae737f-a135-11e9-9cda-0a87ae2ba916,,,,,,,,,,,,,
42.00454962194,Warren Park East,CREDITCARD,TRANSITCARD,KEY,True,https://chi.lft.to/lastmile_qr_scan,https://chi.lft.to/lastmile_qr_scan,,classic,448,False,RP-002,11,False,-87.6806661451,448,a3ae78ab-a135-11e9-9cda-0a87ae2ba916,,,,,,,,,,,,,
42.00445062934,Clark St & Columbia Ave,CREDITCARD,TRANSITCARD,KEY,True,https://chi.lft.to/lastmile_qr_scan,https://chi.lft.to/lastmile_qr_scan,,classic,449,False,RP-008,15,False,-87.6724024047,449,a3ae7dc3-a135-11e9-9cda-0a87ae2ba916,,,,,,,,,,,,,
42.001785,Warren Park West,CREDITCARD,TRANSITCARD,KEY,True,https://chi.lft.to/lastmile_qr_scan,https://chi.lft.to/lastmile_qr_scan,,classic,450,False,RP-001,11,False,-87.688829,450,a3ae82e0-a135-11e9-9cda-0a87ae2ba916,,,,,,,,,,,,,
41.99416136902,Western Ave & Granville Ave,CREDITCARD,TRANSITCARD,KEY,True,https://chi.lft.to/lastmile_qr_scan,https://chi.lft.to/lastmile_qr_scan,,classic,452,False,KA1504000129,11,False,-87.689438282,452,a3ae8d13-a135-11e9-9cda-0a87ae2ba916,,,,,,,,,,,,,
41.99925182186,Clark St & Schreiber Ave,CREDITCARD,TRANSITCARD,KEY,True,https://chi.lft.to/lastmile_qr_scan,https://chi.lft.to/lastmile_qr_scan,,classic,453,False,KA1504000156,15,False,-87.6713773393,453,a3ae923d-a135-11e9-9cda-0a87ae2ba916,,,,,,,,,,,,,
41.99023602867,Maplewood Ave & Peterson Ave,CREDITCARD,TRANSITCARD,KEY,True,https://chi.lft.to/lastmile_qr_scan,https://chi.lft.to/lastmile_qr_scan,,classic,455,False,KA1504000130,11,False,-87.6933696402,455,a3af1cec-a135-11e9-9cda-0a87ae2ba916,,,,,,,,,,,,,
41.991178,2112 W Peterson Ave,CREDITCARD,TRANSITCARD,KEY,True,https://chi.lft.to/lastmile_qr_scan,https://chi.lft.to/lastmile_qr_scan,,classic,456,False,KA1504000155,11,False,-87.683593,456,a3af2216-a135-11e9-9cda-0a87ae2ba916,,,,,,,,,,,,,
41.99086044812557,Clark St & Elmdale Ave,CREDITCARD,TRANSITCARD,KEY,True,https://chi.lft.to/lastmile_qr_scan,https://chi.lft.to/lastmile_qr_scan,,classic,457,False,KA1504000148,15,False,-87.66972362995148,457,a3af2737-a135-11e9-9cda-0a87ae2ba916,,,,,,,,,,,,,
41.983593,Clark St & Bryn Mawr Ave,CREDITCARD,TRANSITCARD,KEY,True,https://chi.lft.to/lastmile_qr_scan,https://chi.lft.to/lastmile_qr_scan,,classic,460,False,KA1504000151,15,False,-87.669154,460,a3af368c-a135-11e9-9cda-0a87ae2ba916,,,,,,,,,,,,,
41.979762,Winchester (Ravenswood) Ave & Balmoral Ave,CREDITCARD,TRANSITCARD,KEY,True,https://chi.lft.to/lastmile_qr_scan,https://chi.lft.to/lastmile_qr_scan,,classic,462,False,KA1504000147,15,False,-87.67753,462,a3af40f1-a135-11e9-9cda-0a87ae2ba916,,,,,,,,,,,,,
41.97561480459,Damen Ave & Foster Ave,CREDITCARD,TRANSITCARD,KEY,True,https://chi.lft.to/lastmile_qr_scan,https://chi.lft.to/lastmile_qr_scan,,classic,464,False,KA1504000149,15,False,-87.6794590387,464,a3af4b26-a135-11e9-9cda-0a87ae2ba916,,,,,,,,,,,,,
42.01213227742,Ridge Blvd & Touhy Ave,CREDITCARD,TRANSITCARD,KEY,True,https://chi.lft.to/lastmile_qr_scan,https://chi.lft.to/lastmile_qr_scan,,classic,466,False,RP-006,11,False,-87.6829126443,466,a3af5804-a135-11e9-9cda-0a87ae2ba916,,,,,,,,,,,,,
42.0085943972,Western Ave & Lunt Ave,CREDITCARD,TRANSITCARD,KEY,True,https://chi.lft.to/lastmile_qr_scan,https://chi.lft.to/lastmile_qr_scan,,classic,467,False,RP-005,15,False,-87.6904922389,467,a3af5d1c-a135-11e9-9cda-0a87ae2ba916,,,,,,,,,,,,,
41.98366470886,Budlong Woods Library,CREDITCARD,TRANSITCARD,KEY,True,https://chi.lft.to/lastmile_qr_scan,https://chi.lft.to/lastmile_qr_scan,,classic,468,False,15585,11,False,-87.6964225611,468,a3af624c-a135-11e9-9cda-0a87ae2ba916,,,,,,,,,,,,,
41.98039423475,St. Louis Ave & Balmoral Ave,CREDITCARD,TRANSITCARD,KEY,True,https://chi.lft.to/lastmile_qr_scan,https://chi.lft.to/lastmile_qr_scan,,classic,469,False,KA1504000161,15,False,-87.7161149615,469,a3af6c2f-a135-11e9-9cda-0a87ae2ba916,,,,,,,,,,,,,
41.975672,Kedzie Ave & Foster Ave,CREDITCARD,TRANSITCARD,KEY,True,https://chi.lft.to/lastmile_qr_scan,https://chi.lft.to/lastmile_qr_scan,,classic,470,False,KA1504000128,11,False,-87.709261,470,a3af71a9-a135-11e9-9cda-0a87ae2ba916,,,,,,,,,,,,,
41.97563272521,Francisco Ave & Foster Ave,CREDITCARD,TRANSITCARD,KEY,True,https://chi.lft.to/lastmile_qr_scan,https://chi.lft.to/lastmile_qr_scan,,classic,471,False,KA1504000160,15,False,-87.7014194389,471,a3af76f8-a135-11e9-9cda-0a87ae2ba916,,,,,,,,,,,,,
41.97491129677,Lincoln Ave & Winona St,CREDITCARD,TRANSITCARD,KEY,True,https://chi.lft.to/lastmile_qr_scan,https://chi.lft.to/lastmile_qr_scan,,classic,472,False,KA1504000078,15,False,-87.6925025594,472,a3af7c0e-a135-11e9-9cda-0a87ae2ba916,,,,,,,,,,,,,
41.96835449363,Christiana Ave & Lawrence Ave,CREDITCARD,TRANSITCARD,KEY,True,https://chi.lft.to/lastmile_qr_scan,https://chi.lft.to/lastmile_qr_scan,,classic,474,False,15615,15,False,-87.7118306675,474,a3af8123-a135-11e9-9cda-0a87ae2ba916,,,,,,,,,,,,,
41.968987,Washtenaw Ave & Lawrence Ave,CREDITCARD,TRANSITCARD,KEY,True,https://chi.lft.to/lastmile_qr_scan,https://chi.lft.to/lastmile_qr_scan,,classic,475,False,KA1504000080,15,False,-87.696027,475,a3af8642-a135-11e9-9cda-0a87ae2ba916,,,,,,,,,,,,,
41.96668636205,Kedzie Ave & Leland Ave,CREDITCARD,TRANSITCARD,KEY,True,https://chi.lft.to/lastmile_qr_scan,https://chi.lft.to/lastmile_qr_scan,,classic,476,False,KA1504000126,15,False,-87.7080519806,476,a3af8b51-a135-11e9-9cda-0a87ae2ba916,,,,,,,,,,,,,
41.965875,Manor Ave & Leland Ave,CREDITCARD,TRANSITCARD,KEY,True,https://chi.lft.to/lastmile_qr_scan,https://chi.lft.to/lastmile_qr_scan,,classic,477,False,KA1504000127,11,False,-87.700825,477,a3af9064-a135-11e9-9cda-0a87ae2ba916,,,,,,,,,,,,,
41.96590013976,Rockwell St & Eastwood Ave,CREDITCARD,TRANSITCARD,KEY,True,https://chi.lft.to/lastmile_qr_scan,https://chi.lft.to/lastmile_qr_scan,,classic,478,False,KA1504000093,15,False,-87.6936384935,478,a3af956e-a135-11e9-9cda-0a87ae2ba916,,,,,,,,,,,,,
41.96115407569,Drake Ave & Montrose Ave,CREDITCARD,TRANSITCARD,KEY,True,https://chi.lft.to/lastmile_qr_scan,https://chi.lft.to/lastmile_qr_scan,,classic,479,False,KA1504000097,15,False,-87.7165690733,479,a3af9a83-a135-11e9-9cda-0a87ae2ba916,,,,,,,,,,,,,
41.961041,Albany Ave & Montrose Ave,CREDITCARD,TRANSITCARD,KEY,True,https://chi.lft.to/lastmile_qr_scan,https://chi.lft.to/lastmile_qr_scan,,classic,480,False,15621,11,False,-87.705866,480,a3af9f99-a135-11e9-9cda-0a87ae2ba916,,,,,,,,,,,,,
41.961068,California Ave & Montrose Ave,CREDITCARD,TRANSITCARD,KEY,True,https://chi.lft.to/lastmile_qr_scan,https://chi.lft.to/lastmile_qr_scan,,classic,481,False,15622,15,False,-87.695439,481,a3afa4c3-a135-11e9-9cda-0a87ae2ba916,,,,,,,,,,,,,
41.96152593287,Campbell Ave & Montrose Ave,CREDITCARD,TRANSITCARD,KEY,True,https://chi.lft.to/lastmile_qr_scan,https://chi.lft.to/lastmile_qr_scan,,classic,482,False,15623,15,False,-87.6911650414,482,a3afa9dc-a135-11e9-9cda-0a87ae2ba916,,,,,,,,,,,,,
41.95400483876,Monticello Ave & Irving Park Rd,CREDITCARD,TRANSITCARD,KEY,True,https://chi.lft.to/lastmile_qr_scan,https://chi.lft.to/lastmile_qr_scan,,classic,484,False,KA1504000139,15,False,-87.7191281797,484,a3afb401-a135-11e9-9cda-0a87ae2ba916,,,,,,,,,,,,,
41.95358617895,Sawyer Ave & Irving Park Rd,CREDITCARD,TRANSITCARD,KEY,True,https://chi.lft.to/lastmile_qr_scan,https://chi.lft.to/lastmile_qr_scan,,classic,485,False,KA1504000096,15,False,-87.7093107999,485,a3afb917-a135-11e9-9cda-0a87ae2ba916,,,,,,,,,,,,,
41.95434085219,Oakley Ave & Irving Park Rd,CREDITCARD,TRANSITCARD,KEY,True,https://chi.lft.to/lastmile_qr_scan,https://chi.lft.to/lastmile_qr_scan,,classic,486,False,KA1504000158,15,False,-87.6860796243,486,a3afbe2e-a135-11e9-9cda-0a87ae2ba916,,,,,,,,,,,,,
41.946264,Pulaski Rd & Eddy St (Temp),CREDITCARD,TRANSITCARD,KEY,True,https://chi.lft.to/lastmile_qr_scan,https://chi.lft.to/lastmile_qr_scan,,classic,488,False,KA1504000141,11,False,-87.731023,488,a3afc858-a135-11e9-9cda-0a87ae2ba916,,,,,,,,,,,,,
41.947326,Drake Ave & Addison St,CREDITCARD,TRANSITCARD,KEY,True,https://chi.lft.to/lastmile_qr_scan,https://chi.lft.to/lastmile_qr_scan,,classic,489,False,KA1504000142,15,False,-87.717582,489,a3afcd70-a135-11e9-9cda-0a87ae2ba916,,,,,,,,,,,,,
41.94524356848,Troy St & Elston Ave,CREDITCARD,TRANSITCARD,KEY,True,https://chi.lft.to/lastmile_qr_scan,https://chi.lft.to/lastmile_qr_scan,,classic,490,False,15631,15,False,-87.7066499009,490,a3afd294-a135-11e9-9cda-0a87ae2ba916,,,,,,,,,,,,,
41.9466358306,Talman Ave & Addison St,CREDITCARD,TRANSITCARD,KEY,True,https://chi.lft.to/lastmile_qr_scan,https://chi.lft.to/lastmile_qr_scan,,classic,491,False,15632,15,False,-87.694614758,491,a3afd7ab-a135-11e9-9cda-0a87ae2ba916,,,,,,,,,,,,,
41.946655,Leavitt St & Addison St,CREDITCARD,TRANSITCARD,KEY,True,https://chi.lft.to/lastmile_qr_scan,https://chi.lft.to/lastmile_qr_scan,,classic,492,False,KA1504000143,15,False,-87.683359,492,a3afdcbf-a135-11e9-9cda-0a87ae2ba916,,,,,,,,,,,,,
41.943034,Western Ave & Roscoe St,CREDITCARD,TRANSITCARD,KEY,True,https://chi.lft.to/lastmile_qr_scan,https://chi.lft.to/lastmile_qr_scan,,classic,493,False,15634,11,False,-87.687288,493,a3afe1dc-a135-11e9-9cda-0a87ae2ba916,,,,,,,,,,,,,
41.98222975911517,Kedzie Ave & Bryn Mawr Ave,CREDITCARD,TRANSITCARD,KEY,True,https://chi.lft.to/lastmile_qr_scan,https://chi.lft.to/lastmile_qr_scan,,classic,494,False,KA1504000167,15,False,-87.70888656377792,494,a3afe6ed-a135-11e9-9cda-0a87ae2ba916,,,,,,,,,,,,,
41.96110801623,Keystone Ave & Montrose Ave,CREDITCARD,TRANSITCARD,KEY,True,https://chi.lft.to/lastmile_qr_scan,https://chi.lft.to/lastmile_qr_scan,,classic,495,False,KA1504000164,11,False,-87.7289701012,495,a3afebff-a135-11e9-9cda-0a87ae2ba916,,,,,,,,,,,,,
41.939408,Avers Ave & Belmont Ave,CREDITCARD,TRANSITCARD,KEY,True,https://chi.lft.to/lastmile_qr_scan,https://chi.lft.to/lastmile_qr_scan,,classic,496,False,15640,11,False,-87.723574,496,a3aff10c-a135-11e9-9cda-0a87ae2ba916,,,,,,,,,,,,,
41.939398,Kimball Ave & Belmont Ave,CREDITCARD,TRANSITCARD,KEY,True,https://chi.lft.to/lastmile_qr_scan,https://chi.lft.to/lastmile_qr_scan,,classic,497,False,KA150400009X,15,False,-87.711561,497,a3aff616-a135-11e9-9cda-0a87ae2ba916,,,,,,,,,,,,,
41.93058537138,Kosciuszko Park,CREDITCARD,TRANSITCARD,KEY,True,https://chi.lft.to/lastmile_qr_scan,https://chi.lft.to/lastmile_qr_scan,,classic,499,False,15643,15,False,-87.7237773635,499,a3b00055-a135-11e9-9cda-0a87ae2ba916,,,,,,,,,,,,,
41.93533728263,Central Park Ave & Elbridge Ave,CREDITCARD,TRANSITCARD,KEY,True,https://chi.lft.to/lastmile_qr_scan,https://chi.lft.to/lastmile_qr_scan,,classic,500,False,15644,15,False,-87.7168892935,500,a3b0060d-a135-11e9-9cda-0a87ae2ba916,,,,,,,,,,,,,
41.93190196886,Richmond St & Diversey Ave,CREDITCARD,TRANSITCARD,KEY,True,https://chi.lft.to/lastmile_qr_scan,https://chi.lft.to/lastmile_qr_scan,,classic,501,False,15645,15,False,-87.7011951301,501,a3b00b3a-a135-11e9-9cda-0a87ae2ba916,,,,,,,,,,,,,
41.92669,California Ave & Altgeld St,CREDITCARD,TRANSITCARD,KEY,True,https://chi.lft.to/lastmile_qr_scan,https://chi.lft.to/lastmile_qr_scan,,classic,502,False,15646,15,False,-87.697668,502,a3b0104c-a135-11e9-9cda-0a87ae2ba916,,,,,,,,,,,,,
41.92481559681187,St. Louis Ave & Fullerton Ave,CREDITCARD,TRANSITCARD,KEY,True,https://chi.lft.to/lastmile_qr_scan,https://chi.lft.to/lastmile_qr_scan,,classic,503,False,KA1504000090,15,False,-87.71449506282805,503,a3b01578-a135-11e9-9cda-0a87ae2ba916,,,,,,,,,,,,,
41.92463247165,Campbell Ave & Fullerton Ave,CREDITCARD,TRANSITCARD,KEY,True,https://chi.lft.to/lastmile_qr_scan,https://chi.lft.to/lastmile_qr_scan,,classic,504,False,15648,15,False,-87.6893070063,504,a3b01a86-a135-11e9-9cda-0a87ae2ba916,,,,,,,,,,,,,
41.92409085038,Winchester Ave & Elston Ave,CREDITCARD,TRANSITCARD,KEY,True,https://chi.lft.to/lastmile_qr_scan,https://chi.lft.to/lastmile_qr_scan,,classic,505,False,KA1504000140,15,False,-87.6764600747,505,a3b01f9c-a135-11e9-9cda-0a87ae2ba916,,,,,,,,,,,,,
41.91710803478932,Spaulding Ave & Armitage Ave,CREDITCARD,TRANSITCARD,KEY,True,https://chi.lft.to/lastmile_qr_scan,https://chi.lft.to/lastmile_qr_scan,,classic,506,False,15650,15,False,-87.71022096276283,506,a3b024aa-a135-11e9-9cda-0a87ae2ba916,,,,,,,,,,,,,
41.90965687563,Central Park Ave & North Ave,CREDITCARD,TRANSITCARD,KEY,True,https://chi.lft.to/lastmile_qr_scan,https://chi.lft.to/lastmile_qr_scan,,classic,508,False,15652,15,False,-87.7166319516,508,a3b02ef1-a135-11e9-9cda-0a87ae2ba916,,,,,,,,,,,,,
41.90976930169,Troy St & North Ave,CREDITCARD,TRANSITCARD,KEY,True,https://chi.lft.to/lastmile_qr_scan,https://chi.lft.to/lastmile_qr_scan,,classic,509,False,15653,15,False,-87.7052804871,509,a3b0b291-a135-11e9-9cda-0a87ae2ba916,,,,,,,,,,,,,
41.90270659438,Spaulding Ave & Division St,CREDITCARD,TRANSITCARD,KEY,True,https://chi.lft.to/lastmile_qr_scan,https://chi.lft.to/lastmile_qr_scan,,classic,510,False,15654,11,False,-87.709219571,510,a3b0b801-a135-11e9-9cda-0a87ae2ba916,,,,,,,,,,,,,
42.019276,Ridge Blvd & Howard St,CREDITCARD,TRANSITCARD,KEY,True,https://chi.lft.to/lastmile_qr_scan,https://chi.lft.to/lastmile_qr_scan,,classic,514,False,514,11,False,-87.68452,514,a3b0ccad-a135-11e9-9cda-0a87ae2ba916,,,,,,,,,,,,,
42.015963,Clark St & Jarvis Ave,CREDITCARD,TRANSITCARD,KEY,True,https://chi.lft.to/lastmile_qr_scan,https://chi.lft.to/lastmile_qr_scan,,classic,517,False,517,11,False,-87.675005,517,a3b0d6ec-a135-11e9-9cda-0a87ae2ba916,,,,,,,,,,,,,
41.885502,Conservatory Dr & Lake St,CREDITCARD,TRANSITCARD,KEY,True,https://chi.lft.to/lastmile_qr_scan,https://chi.lft.to/lastmile_qr_scan,,classic,518,False,518,11,False,-87.716866,518,a3b0dc1f-a135-11e9-9cda-0a87ae2ba916,,,,,,,,,,,,,
42.016977,Wolcott Ave & Fargo Ave,CREDITCARD,TRANSITCARD,KEY,True,https://chi.lft.to/lastmile_qr_scan,https://chi.lft.to/lastmile_qr_scan,,classic,519,False,519,11,False,-87.677725,519,a3b0e141-a135-11e9-9cda-0a87ae2ba916,,,,,,,,,,,,,
42.019537,Bosworth Ave & Howard St,CREDITCARD,TRANSITCARD,KEY,True,https://chi.lft.to/lastmile_qr_scan,https://chi.lft.to/lastmile_qr_scan,,classic,522,False,16806,11,False,-87.669563,522,a3b0eb93-a135-11e9-9cda-0a87ae2ba916,,,,,,,,,,,,,
42.0208872805206,Eastlake Ter & Rogers Ave,CREDITCARD,TRANSITCARD,KEY,True,https://chi.lft.to/lastmile_qr_scan,https://chi.lft.to/lastmile_qr_scan,,classic,523,False,523,15,False,-87.66505792737007,523,a3b0f0b6-a135-11e9-9cda-0a87ae2ba916,,,,,,,,,,,,,
41.894887,Austin Blvd & Chicago Ave,CREDITCARD,TRANSITCARD,KEY,True,https://chi.lft.to/lastmile_qr_scan,https://chi.lft.to/lastmile_qr_scan,,classic,524,False,16921,7,False,-87.774704,524,a3b0f5c9-a135-11e9-9cda-0a87ae2ba916,,,,,,,,,,,,,
42.012701,Glenwood Ave & Touhy Ave,CREDITCARD,TRANSITCARD,KEY,True,https://chi.lft.to/lastmile_qr_scan,https://chi.lft.to/lastmile_qr_scan,,classic,525,False,525,15,False,-87.666058,525,a3b0fae6-a135-11e9-9cda-0a87ae2ba916,,,,,,,,,,,,,
42.012342,Oakley Ave & Touhy Ave,CREDITCARD,TRANSITCARD,KEY,True,https://chi.lft.to/lastmile_qr_scan,https://chi.lft.to/lastmile_qr_scan,,classic,526,False,RP-004,11,False,-87.688243,526,a3b0fff9-a135-11e9-9cda-0a87ae2ba916,,,,,,,,,,,,,
42.018901,Western Ave & Howard St,CREDITCARD,TRANSITCARD,KEY,True,https://chi.lft.to/lastmile_qr_scan,https://chi.lft.to/lastmile_qr_scan,,classic,527,False,527,15,False,-87.690048,527,a3b1050d-a135-11e9-9cda-0a87ae2ba916,,,,,,,,,,,,,
41.885409,Pulaski Rd & Lake St,CREDITCARD,TRANSITCARD,KEY,True,https://chi.lft.to/lastmile_qr_scan,https://chi.lft.to/lastmile_qr_scan,,classic,528,False,528,11,False,-87.726491,528,a3b10a40-a135-11e9-9cda-0a87ae2ba916,,,,,,,,,,,,,
41.886841,Cicero Ave & Lake St,CREDITCARD,TRANSITCARD,KEY,True,https://chi.lft.to/lastmile_qr_scan,https://chi.lft.to/lastmile_qr_scan,,classic,529,False,16903,11,False,-87.745261,529,a3b10f66-a135-11e9-9cda-0a87ae2ba916,,,,,,,,,,,,,
41.887832,Laramie Ave & Kinzie St,CREDITCARD,TRANSITCARD,KEY,True,https://chi.lft.to/lastmile_qr_scan,https://chi.lft.to/lastmile_qr_scan,,classic,530,False,530,11,False,-87.755527,530,a3b11480-a135-11e9-9cda-0a87ae2ba916,,,,,,,,,,,,,
41.887664,Central Ave & Lake St,CREDITCARD,TRANSITCARD,KEY,True,https://chi.lft.to/lastmile_qr_scan,https://chi.lft.to/lastmile_qr_scan,,classic,531,False,16905,11,False,-87.765469,531,a3b11993-a135-11e9-9cda-0a87ae2ba916,,,,,,,,,,,,,
41.888059607175954,Austin Blvd & Lake St,CREDITCARD,TRANSITCARD,KEY,True,https://chi.lft.to/lastmile_qr_scan,https://chi.lft.to/lastmile_qr_scan,,classic,532,False,16906,11,False,-87.77426540851593,532,a3b11ea4-a135-11e9-9cda-0a87ae2ba916,,,,,,,,,,,,,
41.875679,Central Park Blvd & 5th Ave,CREDITCARD,TRANSITCARD,KEY,True,https://chi.lft.to/lastmile_qr_scan,https://chi.lft.to/lastmile_qr_scan,,classic,533,False,16907,11,False,-87.71547,533,a3b123c5-a135-11e9-9cda-0a87ae2ba916,,,,,,,,,,,,,
41.88085,Karlov Ave & Madison St,CREDITCARD,TRANSITCARD,KEY,True,https://chi.lft.to/lastmile_qr_scan,https://chi.lft.to/lastmile_qr_scan,,classic,534,False,534,11,False,-87.727907,534,a3b128de-a135-11e9-9cda-0a87ae2ba916,,,,,,,,,,,,,
41.874325,Pulaski Rd & Congress Pkwy,CREDITCARD,TRANSITCARD,KEY,True,https://chi.lft.to/lastmile_qr_scan,https://chi.lft.to/lastmile_qr_scan,,classic,535,False,535,11,False,-87.725704,535,a3b12dfb-a135-11e9-9cda-0a87ae2ba916,,,,,,,,,,,,,
41.885928,Kostner Ave & Lake St,CREDITCARD,TRANSITCARD,KEY,True,https://chi.lft.to/lastmile_qr_scan,https://chi.lft.to/lastmile_qr_scan,,classic,536,False,536,11,False,-87.73541,536,a3b1330c-a135-11e9-9cda-0a87ae2ba916,,,,,,,,,,,,,
41.880708,Kenton Ave & Madison St,CREDITCARD,TRANSITCARD,KEY,True,https://chi.lft.to/lastmile_qr_scan,https://chi.lft.to/lastmile_qr_scan,,classic,537,False,537,11,False,-87.741018,537,a3b13836-a135-11e9-9cda-0a87ae2ba916,,,,,,,,,,,,,
41.872131,Cicero Ave & Flournoy St,CREDITCARD,TRANSITCARD,KEY,True,https://chi.lft.to/lastmile_qr_scan,https://chi.lft.to/lastmile_qr_scan,,classic,538,False,16912,11,False,-87.746619,538,a3b13e66-a135-11e9-9cda-0a87ae2ba916,,,,,,,,,,,,,
41.877613,Cicero Ave & Quincy St,CREDITCARD,TRANSITCARD,KEY,True,https://chi.lft.to/lastmile_qr_scan,https://chi.lft.to/lastmile_qr_scan,,classic,539,False,16913,11,False,-87.745405,539,a3b143aa-a135-11e9-9cda-0a87ae2ba916,,,,,,,,,,,,,
41.880207,Laramie Ave & Madison St,CREDITCARD,TRANSITCARD,KEY,True,https://chi.lft.to/lastmile_qr_scan,https://chi.lft.to/lastmile_qr_scan,,classic,540,False,540,11,False,-87.755337,540,a3b148bf-a135-11e9-9cda-0a87ae2ba916,,,,,,,,,,,,,
41.872993,Central Ave & Harrison St,CREDITCARD,TRANSITCARD,KEY,True,https://chi.lft.to/lastmile_qr_scan,https://chi.lft.to/lastmile_qr_scan,,classic,541,False,16915,11,False,-87.764499,541,a3b1c47b-a135-11e9-9cda-0a87ae2ba916,,,,,,,,,,,,,
41.880121,Central Ave & Madison St,CREDITCARD,TRANSITCARD,KEY,True,https://chi.lft.to/lastmile_qr_scan,https://chi.lft.to/lastmile_qr_scan,,classic,542,False,16916,11,False,-87.763238,542,a3b1ca28-a135-11e9-9cda-0a87ae2ba916,,,,,,,,,,,,,
41.875806,Laramie Ave & Gladys Ave,CREDITCARD,TRANSITCARD,KEY,True,https://chi.lft.to/lastmile_qr_scan,https://chi.lft.to/lastmile_qr_scan,,classic,543,False,543,11,False,-87.755285,543,a3b1cf80-a135-11e9-9cda-0a87ae2ba916,,,,,,,,,,,,,
41.880281,Austin Blvd & Madison St,CREDITCARD,TRANSITCARD,KEY,True,https://chi.lft.to/lastmile_qr_scan,https://chi.lft.to/lastmile_qr_scan,,classic,544,False,16918,11,False,-87.774453,544,a3b1d532-a135-11e9-9cda-0a87ae2ba916,,,,,,,,,,,,,
41.877917,Kostner Ave & Adams St,CREDITCARD,TRANSITCARD,KEY,True,https://chi.lft.to/lastmile_qr_scan,https://chi.lft.to/lastmile_qr_scan,,classic,545,False,545,11,False,-87.735737,545,a3b1db23-a135-11e9-9cda-0a87ae2ba916,,,,,,,,,,,,,
41.823192,Damen Ave & Pershing Rd,CREDITCARD,TRANSITCARD,KEY,True,https://chi.lft.to/lastmile_qr_scan,https://chi.lft.to/lastmile_qr_scan,,classic,546,False,546,11,False,-87.676597,546,a3b1e065-a135-11e9-9cda-0a87ae2ba916,,,,,,,,,,,,,
41.823465,Ashland Ave & Pershing Rd,CREDITCARD,TRANSITCARD,KEY,True,https://chi.lft.to/lastmile_qr_scan,https://chi.lft.to/lastmile_qr_scan,,classic,547,False,16932,11,False,-87.665577,547,a3b1e588-a135-11e9-9cda-0a87ae2ba916,,,,,,,,,,,,,
41.823613,Morgan St & Pershing Rd,CREDITCARD,TRANSITCARD,KEY,True,https://chi.lft.to/lastmile_qr_scan,https://chi.lft.to/lastmile_qr_scan,,classic,548,False,16933,7,False,-87.650931,548,a3b1eaa7-a135-11e9-9cda-0a87ae2ba916,,,,,,,,,,,,,
41.813996,Marshfield Ave & 44th St,CREDITCARD,TRANSITCARD,KEY,True,https://chi.lft.to/lastmile_qr_scan,https://chi.lft.to/lastmile_qr_scan,,classic,549,False,549,11,False,-87.666589,549,a3b1efd6-a135-11e9-9cda-0a87ae2ba916,,,,,,,,,,,,,
41.894958,Central Ave & Chicago Ave,CREDITCARD,TRANSITCARD,KEY,True,https://chi.lft.to/lastmile_qr_scan,https://chi.lft.to/lastmile_qr_scan,,classic,550,False,16920,11,False,-87.764902,550,a3b1f4fb-a135-11e9-9cda-0a87ae2ba916,,,,,,,,,,,,,
41.808227,Hoyne Ave & 47th St,CREDITCARD,TRANSITCARD,KEY,True,https://chi.lft.to/lastmile_qr_scan,https://chi.lft.to/lastmile_qr_scan,,classic,551,False,KA1504000091,11,False,-87.67718,551,a3b1fa1c-a135-11e9-9cda-0a87ae2ba916,,,,,,,,,,,,,
41.80887,Ashland Ave & McDowell Ave,CREDITCARD,TRANSITCARD,KEY,True,https://chi.lft.to/lastmile_qr_scan,https://chi.lft.to/lastmile_qr_scan,,classic,552,False,16937,11,False,-87.66454,552,a3b1ff34-a135-11e9-9cda-0a87ae2ba916,,,,,,,,,,,,,
41.80839,Elizabeth St & 47th St,CREDITCARD,TRANSITCARD,KEY,True,https://chi.lft.to/lastmile_qr_scan,https://chi.lft.to/lastmile_qr_scan,,classic,553,False,553,11,False,-87.656526,553,a3b2044b-a135-11e9-9cda-0a87ae2ba916,,,,,,,,,,,,,
41.800908,Damen Ave & 51st St,CREDITCARD,TRANSITCARD,KEY,True,https://chi.lft.to/lastmile_qr_scan,https://chi.lft.to/lastmile_qr_scan,,classic,554,False,554,7,False,-87.674684,554,a3b20960-a135-11e9-9cda-0a87ae2ba916,,,,,,,,,,,,,
41.803023,Ashland Ave & 50th St,CREDITCARD,TRANSITCARD,KEY,True,https://chi.lft.to/lastmile_qr_scan,https://chi.lft.to/lastmile_qr_scan,,classic,555,False,16940,11,False,-87.664699,555,a3b20e8a-a135-11e9-9cda-0a87ae2ba916,,,,,,,,,,,,,
41.799659,Throop St & 52nd St,CREDITCARD,TRANSITCARD,KEY,True,https://chi.lft.to/lastmile_qr_scan,https://chi.lft.to/lastmile_qr_scan,,classic,556,False,556,7,False,-87.657195,556,a3b213af-a135-11e9-9cda-0a87ae2ba916,,,,,,,,,,,,,
41.794087,Seeley Ave & Garfield Blvd,CREDITCARD,TRANSITCARD,KEY,True,https://chi.lft.to/lastmile_qr_scan,https://chi.lft.to/lastmile_qr_scan,,classic,557,False,557,11,False,-87.675478,557,a3b218cd-a135-11e9-9cda-0a87ae2ba916,,,,,,,,,,,,,
41.792822,Ashland Ave & Garfield Blvd,CREDITCARD,TRANSITCARD,KEY,True,https://chi.lft.to/lastmile_qr_scan,https://chi.lft.to/lastmile_qr_scan,,classic,558,False,16943,11,False,-87.664429,558,a3b21de7-a135-11e9-9cda-0a87ae2ba916,,,,,,,,,,,,,
41.794228,Racine Ave & Garfield Blvd,CREDITCARD,TRANSITCARD,KEY,True,https://chi.lft.to/lastmile_qr_scan,https://chi.lft.to/lastmile_qr_scan,,classic,559,False,559,11,False,-87.655073,559,a3b222fc-a135-11e9-9cda-0a87ae2ba916,,,,,,,,,,,,,
41.786833,Marshfield Ave & 59th St,CREDITCARD,TRANSITCARD,KEY,True,https://chi.lft.to/lastmile_qr_scan,https://chi.lft.to/lastmile_qr_scan,,classic,560,False,560,11,False,-87.666215,560,a3b22815-a135-11e9-9cda-0a87ae2ba916,,,,,,,,,,,,,
41.785861065132,Damen Ave & 59th St,CREDITCARD,TRANSITCARD,KEY,True,https://chi.lft.to/lastmile_qr_scan,https://chi.lft.to/lastmile_qr_scan,,classic,561,False,561,11,False,-87.67414391040802,561,a3b22d3d-a135-11e9-9cda-0a87ae2ba916,,,,,,,,,,,,,
41.783189,Racine Ave & 61st St,CREDITCARD,TRANSITCARD,KEY,True,https://chi.lft.to/lastmile_qr_scan,https://chi.lft.to/lastmile_qr_scan,,classic,562,False,562,11,False,-87.654372,562,a3b23263-a135-11e9-9cda-0a87ae2ba916,,,,,,,,,,,,,
41.779374,Ashland Ave & 63rd St,CREDITCARD,TRANSITCARD,KEY,True,https://chi.lft.to/lastmile_qr_scan,https://chi.lft.to/lastmile_qr_scan,,classic,563,False,16948,11,False,-87.664843,563,a3b23785-a135-11e9-9cda-0a87ae2ba916,,,,,,,,,,,,,
41.775393,Racine Ave & 65th St,CREDITCARD,TRANSITCARD,KEY,True,https://chi.lft.to/lastmile_qr_scan,https://chi.lft.to/lastmile_qr_scan,,classic,564,False,564,11,False,-87.654308,564,a3b23cb8-a135-11e9-9cda-0a87ae2ba916,,,,,,,,,,,,,
41.774074,Ashland Ave & 66th St,CREDITCARD,TRANSITCARD,KEY,True,https://chi.lft.to/lastmile_qr_scan,https://chi.lft.to/lastmile_qr_scan,,classic,565,False,16950,7,False,-87.663815,565,a3b241df-a135-11e9-9cda-0a87ae2ba916,,,,,,,,,,,,,
41.768938,May St & 69th St,CREDITCARD,TRANSITCARD,KEY,True,https://chi.lft.to/lastmile_qr_scan,https://chi.lft.to/lastmile_qr_scan,,classic,567,False,567,11,False,-87.652934,567,a3b24c1f-a135-11e9-9cda-0a87ae2ba916,,,,,,,,,,,,,
41.75797,Vincennes Ave & 75th St,CREDITCARD,TRANSITCARD,KEY,True,https://chi.lft.to/lastmile_qr_scan,https://chi.lft.to/lastmile_qr_scan,,classic,568,False,16953,7,False,-87.63121,568,a3b2513d-a135-11e9-9cda-0a87ae2ba916,,,,,,,,,,,,,
41.75916,Woodlawn Ave & 75th St,CREDITCARD,TRANSITCARD,KEY,True,https://chi.lft.to/lastmile_qr_scan,https://chi.lft.to/lastmile_qr_scan,,classic,569,False,569,11,False,-87.595751,569,a3b25656-a135-11e9-9cda-0a87ae2ba916,,,,,,,,,,,,,
41.75849,Evans Ave & 75th St,CREDITCARD,TRANSITCARD,KEY,True,https://chi.lft.to/lastmile_qr_scan,https://chi.lft.to/lastmile_qr_scan,,classic,570,False,570,7,False,-87.60641,570,a3b25b6d-a135-11e9-9cda-0a87ae2ba916,,,,,,,,,,,,,
41.758361,Vernon Ave & 75th St,CREDITCARD,TRANSITCARD,KEY,True,https://chi.lft.to/lastmile_qr_scan,https://chi.lft.to/lastmile_qr_scan,,classic,571,False,571,11,False,-87.614138,571,a3b26084-a135-11e9-9cda-0a87ae2ba916,,,,,,,,,,,,,
41.756971,State St & 76th St,CREDITCARD,TRANSITCARD,KEY,True,https://chi.lft.to/lastmile_qr_scan,https://chi.lft.to/lastmile_qr_scan,,classic,572,False,572,11,False,-87.624621,572,a3b2659d-a135-11e9-9cda-0a87ae2ba916,,,,,,,,,,,,,
41.750794,State St & 79th St,CREDITCARD,TRANSITCARD,KEY,True,https://chi.lft.to/lastmile_qr_scan,https://chi.lft.to/lastmile_qr_scan,,classic,573,False,573,11,False,-87.624424,573,a3b26acf-a135-11e9-9cda-0a87ae2ba916,,,,,,,,,,,,,
41.75094,Vernon Ave & 79th St,CREDITCARD,TRANSITCARD,KEY,True,https://chi.lft.to/lastmile_qr_scan,https://chi.lft.to/lastmile_qr_scan,,classic,574,False,574,11,False,-87.61379,574,a3b26fee-a135-11e9-9cda-0a87ae2ba916,,,,,,,,,,,,,
41.753174,Cottage Grove Ave & 78th St,CREDITCARD,TRANSITCARD,KEY,True,https://chi.lft.to/lastmile_qr_scan,https://chi.lft.to/lastmile_qr_scan,,classic,575,False,575,11,False,-87.605026,575,a3b2767f-a135-11e9-9cda-0a87ae2ba916,,,,,,,,,,,,,
41.751294,Greenwood Ave & 79th St,CREDITCARD,TRANSITCARD,KEY,True,https://chi.lft.to/lastmile_qr_scan,https://chi.lft.to/lastmile_qr_scan,,classic,576,False,576,11,False,-87.597552,576,a3b27bcf-a135-11e9-9cda-0a87ae2ba916,,,,,,,,,,,,,
41.751173,Stony Island Ave & South Chicago Ave,CREDITCARD,TRANSITCARD,KEY,True,https://chi.lft.to/lastmile_qr_scan,https://chi.lft.to/lastmile_qr_scan,,classic,577,False,577,11,False,-87.585337,577,a3b2810e-a135-11e9-9cda-0a87ae2ba916,,,,,,,,,,,,,
41.751785,Bennett Ave & 79th St,CREDITCARD,TRANSITCARD,KEY,True,https://chi.lft.to/lastmile_qr_scan,https://chi.lft.to/lastmile_qr_scan,,classic,578,False,16970,11,False,-87.578496,578,a3b2862e-a135-11e9-9cda-0a87ae2ba916,,,,,,,,,,,,,
41.75182,Phillips Ave & 79th St,CREDITCARD,TRANSITCARD,KEY,True,https://chi.lft.to/lastmile_qr_scan,https://chi.lft.to/lastmile_qr_scan,,classic,579,False,579,11,False,-87.565211,579,a3b28b4a-a135-11e9-9cda-0a87ae2ba916,,,,,,,,,,,,,
41.751731,Exchange Ave & 79th St,CREDITCARD,TRANSITCARD,KEY,True,https://chi.lft.to/lastmile_qr_scan,https://chi.lft.to/lastmile_qr_scan,,classic,580,False,580,11,False,-87.552812,580,a3b2905a-a135-11e9-9cda-0a87ae2ba916,,,,,,,,,,,,,
41.744615,Commercial Ave & 83rd St,CREDITCARD,TRANSITCARD,KEY,True,https://chi.lft.to/lastmile_qr_scan,https://chi.lft.to/lastmile_qr_scan,,classic,581,False,TA1309000051,11,False,-87.551208,581,a3b2956a-a135-11e9-9cda-0a87ae2ba916,,,,,,,,,,,,,
41.744531,Phillips Ave & 83rd St,CREDITCARD,TRANSITCARD,KEY,True,https://chi.lft.to/lastmile_qr_scan,https://chi.lft.to/lastmile_qr_scan,,classic,582,False,582,11,False,-87.56506,582,a3b29a90-a135-11e9-9cda-0a87ae2ba916,,,,,,,,,,,,,
41.746559,Stony Island Ave & 82nd St,CREDITCARD,TRANSITCARD,KEY,True,https://chi.lft.to/lastmile_qr_scan,https://chi.lft.to/lastmile_qr_scan,,classic,583,False,583,11,False,-87.586005,583,a3b29fae-a135-11e9-9cda-0a87ae2ba916,,,,,,,,,,,,,
41.744123,Ellis Ave & 83rd St,CREDITCARD,TRANSITCARD,KEY,True,https://chi.lft.to/lastmile_qr_scan,https://chi.lft.to/lastmile_qr_scan,,classic,584,False,584,11,False,-87.599034,584,a3b2a4ca-a135-11e9-9cda-0a87ae2ba916,,,,,,,,,,,,,
41.743441,Cottage Grove Ave & 83rd St,CREDITCARD,TRANSITCARD,KEY,True,https://chi.lft.to/lastmile_qr_scan,https://chi.lft.to/lastmile_qr_scan,,classic,585,False,585,11,False,-87.604836,585,a3b2a9e7-a135-11e9-9cda-0a87ae2ba916,,,,,,,,,,,,,
41.743116,MLK Jr Dr & 83rd St,CREDITCARD,TRANSITCARD,KEY,True,https://chi.lft.to/lastmile_qr_scan,https://chi.lft.to/lastmile_qr_scan,,classic,586,False,586,11,False,-87.6148,586,a3b2af02-a135-11e9-9cda-0a87ae2ba916,,,,,,,,,,,,,
41.743316,Wabash Ave & 83rd St,CREDITCARD,TRANSITCARD,KEY,True,https://chi.lft.to/lastmile_qr_scan,https://chi.lft.to/lastmile_qr_scan,,classic,587,False,587,11,False,-87.622849,587,a3b2b419-a135-11e9-9cda-0a87ae2ba916,,,,,,,,,,,,,
41.743921,South Chicago Ave & 83rd St,CREDITCARD,TRANSITCARD,KEY,True,https://chi.lft.to/lastmile_qr_scan,https://chi.lft.to/lastmile_qr_scan,,classic,588,False,588,11,False,-87.575225,588,a3b2b92c-a135-11e9-9cda-0a87ae2ba916,,,,,,,,,,,,,
41.954468,Milwaukee Ave & Cuyler Ave,CREDITCARD,TRANSITCARD,KEY,True,https://chi.lft.to/lastmile_qr_scan,https://chi.lft.to/lastmile_qr_scan,,classic,589,False,16991,11,False,-87.749594,589,a3b2be3a-a135-11e9-9cda-0a87ae2ba916,,,,,,,,,,,,,
41.953733,Kilbourn Ave & Irving Park Rd,CREDITCARD,TRANSITCARD,KEY,True,https://chi.lft.to/lastmile_qr_scan,https://chi.lft.to/lastmile_qr_scan,,classic,590,False,590,11,False,-87.740569,590,a3b2c354-a135-11e9-9cda-0a87ae2ba916,,,,,,,,,,,,,
41.94707089418471,Kilbourn Ave & Milwaukee Ave,CREDITCARD,TRANSITCARD,KEY,True,https://chi.lft.to/lastmile_qr_scan,https://chi.lft.to/lastmile_qr_scan,,classic,591,False,16994,15,False,-87.74000823497772,591,a3b2c87c-a135-11e9-9cda-0a87ae2ba916,,,,,,,,,,,,,
41.960631,Knox Ave & Montrose Ave,CREDITCARD,TRANSITCARD,KEY,True,https://chi.lft.to/lastmile_qr_scan,https://chi.lft.to/lastmile_qr_scan,,classic,592,False,592,11,False,-87.745359,592,a3b2cd97-a135-11e9-9cda-0a87ae2ba916,,,,,,,,,,,,,
41.787539,Halsted St & 59th St,CREDITCARD,TRANSITCARD,KEY,True,https://chi.lft.to/lastmile_qr_scan,https://chi.lft.to/lastmile_qr_scan,,classic,593,False,593,11,False,-87.644874,593,a3b2d2b7-a135-11e9-9cda-0a87ae2ba916,,,,,,,,,,,,,
41.805661,Western Blvd & 48th Pl,CREDITCARD,TRANSITCARD,KEY,True,https://chi.lft.to/lastmile_qr_scan,https://chi.lft.to/lastmile_qr_scan,,classic,594,False,594,11,False,-87.683392,594,a3b2d7d9-a135-11e9-9cda-0a87ae2ba916,,,,,,,,,,,,,
41.736646,Wabash Ave & 87th St,CREDITCARD,TRANSITCARD,KEY,True,https://chi.lft.to/lastmile_qr_scan,https://chi.lft.to/lastmile_qr_scan,,classic,595,False,595,11,False,-87.622634,595,a3b2dcf0-a135-11e9-9cda-0a87ae2ba916,,,,,,,,,,,,,
42.032562,Chicago Ave & Washington St,CREDITCARD,TRANSITCARD,KEY,True,https://chi.lft.to/lastmile_qr_scan,https://chi.lft.to/lastmile_qr_scan,35.0,classic,597,False,E002,15,False,-87.679101,597,a3b2e72c-a135-11e9-9cda-0a87ae2ba916,,,,,,,,,,,,,
42.025784,Elmwood Ave & Austin St,CREDITCARD,TRANSITCARD,KEY,True,https://chi.lft.to/lastmile_qr_scan,https://chi.lft.to/lastmile_qr_scan,35.0,classic,598,False,598,15,False,-87.684107,598,a3b2ec43-a135-11e9-9cda-0a87ae2ba916,,,,,,,,,,,,,
42.039742,Valli Produce - Evanston Plaza,CREDITCARD,TRANSITCARD,KEY,True,https://chi.lft.to/lastmile_qr_scan,https://chi.lft.to/lastmile_qr_scan,35.0,classic,599,False,599,15,False,-87.699413,599,a3b2f15e-a135-11e9-9cda-0a87ae2ba916,,,,,,,,,,,,,
42.048308,Dodge Ave & Church St,CREDITCARD,TRANSITCARD,KEY,True,https://chi.lft.to/lastmile_qr_scan,https://chi.lft.to/lastmile_qr_scan,35.0,classic,600,False,600,15,False,-87.698224,600,a3b2f698-a135-11e9-9cda-0a87ae2ba916,,,,,,,,,,,,,
42.063598,Central St Metra,CREDITCARD,TRANSITCARD,KEY,True,https://chi.lft.to/lastmile_qr_scan,https://chi.lft.to/lastmile_qr_scan,35.0,classic,601,False,E006,15,False,-87.69873,601,a3b2fbb6-a135-11e9-9cda-0a87ae2ba916,,,,,,,,,,,,,
42.064313,Central St & Girard Ave,CREDITCARD,TRANSITCARD,KEY,True,https://chi.lft.to/lastmile_qr_scan,https://chi.lft.to/lastmile_qr_scan,35.0,classic,602,False,E007,15,False,-87.686152,602,a3b300d3-a135-11e9-9cda-0a87ae2ba916,,,,,,,,,,,,,
42.050491,Chicago Ave & Sheridan Rd,CREDITCARD,TRANSITCARD,KEY,True,https://chi.lft.to/lastmile_qr_scan,https://chi.lft.to/lastmile_qr_scan,35.0,classic,603,False,E008,15,False,-87.677821,603,a3b305e7-a135-11e9-9cda-0a87ae2ba916,,,,,,,,,,,,,
42.058239,Sheridan Rd & Noyes St (NU),CREDITCARD,TRANSITCARD,KEY,True,https://chi.lft.to/lastmile_qr_scan,https://chi.lft.to/lastmile_qr_scan,35.0,classic,604,False,604,15,False,-87.677432,604,a3b30b06-a135-11e9-9cda-0a87ae2ba916,,,,,,,,,,,,,
42.052939,University Library (NU),CREDITCARD,TRANSITCARD,KEY,True,https://chi.lft.to/lastmile_qr_scan,https://chi.lft.to/lastmile_qr_scan,35.0,classic,605,False,605,15,False,-87.673447,605,a3b310ac-a135-11e9-9cda-0a87ae2ba916,,,,,,,,,,,,,
41.92459,Keystone Ave & Fullerton Ave,CREDITCARD,TRANSITCARD,KEY,True,https://chi.lft.to/lastmile_qr_scan,https://chi.lft.to/lastmile_qr_scan,,classic,619,False,16010,11,False,-87.72785,619,a3b35885-a135-11e9-9cda-0a87ae2ba916,,,,,,,,,,,,,
41.898203,Orleans St & Chestnut St (NEXT Apts),CREDITCARD,TRANSITCARD,KEY,True,https://chi.lft.to/lastmile_qr_scan,https://chi.lft.to/lastmile_qr_scan,,classic,620,False,620,15,False,-87.637536,620,a3b35e21-a135-11e9-9cda-0a87ae2ba916,,,,,,,,,,,,,
41.900363,California Ave & Cortez St,CREDITCARD,TRANSITCARD,KEY,True,https://chi.lft.to/lastmile_qr_scan,https://chi.lft.to/lastmile_qr_scan,,classic,622,False,17660,15,False,-87.696704,622,a3b3686c-a135-11e9-9cda-0a87ae2ba916,,,,,,,,,,,,,
41.876268,Dearborn St & Van Buren St,CREDITCARD,TRANSITCARD,KEY,True,https://chi.lft.to/lastmile_qr_scan,https://chi.lft.to/lastmile_qr_scan,,classic,624,False,624,15,False,-87.629155,624,a3b372b1-a135-11e9-9cda-0a87ae2ba916,,,,,,,,,,,,,
42.03463185161588,Dodge Ave & Main St,CREDITCARD,TRANSITCARD,KEY,True,https://chi.lft.to/lastmile_qr_scan,https://chi.lft.to/lastmile_qr_scan,35.0,classic,625,False,E011,15,False,-87.69918769598006,625,a3b377cb-a135-11e9-9cda-0a87ae2ba916,,,,,,,,,,,,,
41.96108,Kildare Ave & Montrose Ave,CREDITCARD,TRANSITCARD,KEY,True,https://chi.lft.to/lastmile_qr_scan,https://chi.lft.to/lastmile_qr_scan,,classic,630,False,KA1706005015,15,False,-87.73569,630,a3b38c3f-a135-11e9-9cda-0a87ae2ba916,,,,,,,,,,,,,
41.94454,Clark St & Newport St,CREDITCARD,TRANSITCARD,KEY,True,https://chi.lft.to/lastmile_qr_scan,https://chi.lft.to/lastmile_qr_scan,,classic,632,False,632,15,False,-87.654678,632,a3b3968b-a135-11e9-9cda-0a87ae2ba916,,,,,,,,,,,,,
41.895748,Fairbanks St & Superior St,CREDITCARD,TRANSITCARD,KEY,True,https://chi.lft.to/lastmile_qr_scan,https://chi.lft.to/lastmile_qr_scan,,classic,635,False,18003,11,False,-87.620104,635,a3b39bb0-a135-11e9-9cda-0a87ae2ba916,,,,,,,,,,,,,
41.890028,Orleans St & Hubbard St,CREDITCARD,TRANSITCARD,KEY,True,https://chi.lft.to/lastmile_qr_scan,https://chi.lft.to/lastmile_qr_scan,,classic,636,False,636,11,False,-87.636618,636,a3b3a0c8-a135-11e9-9cda-0a87ae2ba916,,,,,,,,,,,,,
41.895634,Wood St & Chicago Ave,CREDITCARD,TRANSITCARD,KEY,True,https://chi.lft.to/lastmile_qr_scan,https://chi.lft.to/lastmile_qr_scan,,classic,637,False,637,15,False,-87.672069,637,a3b419d9-a135-11e9-9cda-0a87ae2ba916,,,,,,,,,,,,,
41.965845,Lakefront Trail & Wilson Ave,CREDITCARD,TRANSITCARD,KEY,True,https://chi.lft.to/lastmile_qr_scan,https://chi.lft.to/lastmile_qr_scan,,classic,639,False,639,15,False,-87.645361,639,a3b424f6-a135-11e9-9cda-0a87ae2ba916,,,,,,,,,,,,,
41.949923,Bernard St & Elston Ave,CREDITCARD,TRANSITCARD,KEY,True,https://chi.lft.to/lastmile_qr_scan,https://chi.lft.to/lastmile_qr_scan,,classic,640,False,18016,11,False,-87.713949,640,a3b42a3e-a135-11e9-9cda-0a87ae2ba916,,,,,,,,,,,,,
41.914166,Central Park Ave & Bloomingdale Ave,CREDITCARD,TRANSITCARD,KEY,True,https://chi.lft.to/lastmile_qr_scan,https://chi.lft.to/lastmile_qr_scan,,classic,641,False,18017,11,False,-87.716755,641,a3b42f5f-a135-11e9-9cda-0a87ae2ba916,,,,,,,,,,,,,
41.894745,Latrobe Ave & Chicago Ave,CREDITCARD,TRANSITCARD,KEY,True,https://chi.lft.to/lastmile_qr_scan,https://chi.lft.to/lastmile_qr_scan,,classic,642,False,642,7,False,-87.756895,642,a3b43478-a135-11e9-9cda-0a87ae2ba916,,,,,,,,,,,,,
41.892048,Smith Park,CREDITCARD,TRANSITCARD,KEY,True,https://chi.lft.to/lastmile_qr_scan,https://chi.lft.to/lastmile_qr_scan,,classic,643,False,643,15,False,-87.689397,643,a3b4399a-a135-11e9-9cda-0a87ae2ba916,,,,,,,,,,,,,
41.868563,Western Ave & Fillmore St,CREDITCARD,TRANSITCARD,KEY,True,https://chi.lft.to/lastmile_qr_scan,https://chi.lft.to/lastmile_qr_scan,,classic,644,False,644,11,False,-87.686234,644,a3b43eb7-a135-11e9-9cda-0a87ae2ba916,,,,,,,,,,,,,
41.826712,Archer (Damen) Ave & 37th St,CREDITCARD,TRANSITCARD,KEY,True,https://chi.lft.to/lastmile_qr_scan,https://chi.lft.to/lastmile_qr_scan,,classic,645,False,18022,11,False,-87.683144,645,a3b443ce-a135-11e9-9cda-0a87ae2ba916,,,,,,,,,,,,,
41.796642,State St & 54th St,CREDITCARD,TRANSITCARD,KEY,True,https://chi.lft.to/lastmile_qr_scan,https://chi.lft.to/lastmile_qr_scan,,classic,646,False,646,11,False,-87.625923,646,a3b4497a-a135-11e9-9cda-0a87ae2ba916,,,,,,,,,,,,,
41.789696880483376,Elizabeth St & 59th St,CREDITCARD,TRANSITCARD,KEY,True,https://chi.lft.to/lastmile_qr_scan,https://chi.lft.to/lastmile_qr_scan,,classic,647,False,647,7,False,-87.65469789505005,647,a3b44eba-a135-11e9-9cda-0a87ae2ba916,,,,,,,,,,,,,
41.77987,Carpenter St & 63rd St,CREDITCARD,TRANSITCARD,KEY,True,https://chi.lft.to/lastmile_qr_scan,https://chi.lft.to/lastmile_qr_scan,,classic,648,False,18025,7,False,-87.650919,648,a3b453f2-a135-11e9-9cda-0a87ae2ba916,,,,,,,,,,,,,
41.779835,Stewart Ave & 63rd St,CREDITCARD,TRANSITCARD,KEY,True,https://chi.lft.to/lastmile_qr_scan,https://chi.lft.to/lastmile_qr_scan,,classic,649,False,649,11,False,-87.634774,649,a3b4590f-a135-11e9-9cda-0a87ae2ba916,,,,,,,,,,,,,
41.768898,Eggleston Ave & 69th St,CREDITCARD,TRANSITCARD,KEY,True,https://chi.lft.to/lastmile_qr_scan,https://chi.lft.to/lastmile_qr_scan,,classic,650,False,650,11,False,-87.635876,650,a3b45e26-a135-11e9-9cda-0a87ae2ba916,,,,,,,,,,,,,
41.766,Rhodes Ave & 71st St,CREDITCARD,TRANSITCARD,KEY,True,https://chi.lft.to/lastmile_qr_scan,https://chi.lft.to/lastmile_qr_scan,,classic,652,False,652,11,False,-87.611726,652,a3b46866-a135-11e9-9cda-0a87ae2ba916,,,,,,,,,,,,,
41.780595,Cornell Dr & Hayes Dr,CREDITCARD,TRANSITCARD,KEY,True,https://chi.lft.to/lastmile_qr_scan,https://chi.lft.to/lastmile_qr_scan,,classic,653,False,653,11,False,-87.584846,653,a3b46d7b-a135-11e9-9cda-0a87ae2ba916,,,,,,,,,,,,,
41.883073,Racine Ave & Washington Blvd,CREDITCARD,TRANSITCARD,KEY,True,https://chi.lft.to/lastmile_qr_scan,https://chi.lft.to/lastmile_qr_scan,,classic,654,False,654,11,False,-87.656952,654,a3b4728f-a135-11e9-9cda-0a87ae2ba916,,,,,,,,,,,,,
41.979851,Hoyne Ave & Balmoral Ave,CREDITCARD,TRANSITCARD,KEY,True,https://chi.lft.to/lastmile_qr_scan,https://chi.lft.to/lastmile_qr_scan,,classic,655,False,655,15,False,-87.681932,655,a3b477ac-a135-11e9-9cda-0a87ae2ba916,,,,,,,,,,,,,
41.885951,Damen Ave & Walnut (Lake) St,CREDITCARD,TRANSITCARD,KEY,True,https://chi.lft.to/lastmile_qr_scan,https://chi.lft.to/lastmile_qr_scan,,classic,656,False,KA17018054,15,False,-87.677009,656,a3b47cbc-a135-11e9-9cda-0a87ae2ba916,,,,,,,,,,,,,
41.899181,Wood St & Augusta Blvd,CREDITCARD,TRANSITCARD,KEY,True,https://chi.lft.to/lastmile_qr_scan,https://chi.lft.to/lastmile_qr_scan,,classic,657,False,657,15,False,-87.6722,657,a3b481e1-a135-11e9-9cda-0a87ae2ba916,,,,,,,,,,,,,
41.902997,Leavitt St & Division St,CREDITCARD,TRANSITCARD,KEY,True,https://chi.lft.to/lastmile_qr_scan,https://chi.lft.to/lastmile_qr_scan,,classic,658,False,658,15,False,-87.683825,658,a3b486f2-a135-11e9-9cda-0a87ae2ba916,,,,,,,,,,,,,
41.895501,Leavitt St & Chicago Ave,CREDITCARD,TRANSITCARD,KEY,True,https://chi.lft.to/lastmile_qr_scan,https://chi.lft.to/lastmile_qr_scan,,classic,659,False,18058,15,False,-87.682017,659,a3b48c07-a135-11e9-9cda-0a87ae2ba916,,,,,,,,,,,,,
42.004583,Sheridan Rd & Columbia Ave,CREDITCARD,TRANSITCARD,KEY,True,https://chi.lft.to/lastmile_qr_scan,https://chi.lft.to/lastmile_qr_scan,,classic,660,False,660,15,False,-87.661406,660,a3b49122-a135-11e9-9cda-0a87ae2ba916,,,,,,,,,,,,,
42.057044,Evanston Civic Center,CREDITCARD,TRANSITCARD,KEY,True,https://chi.lft.to/lastmile_qr_scan,https://chi.lft.to/lastmile_qr_scan,35.0,classic,661,False,661,15,False,-87.686554,661,a3b4963f-a135-11e9-9cda-0a87ae2ba916,,,,,,,,,,,,,
42.023463,Dodge Ave & Mulford St,CREDITCARD,TRANSITCARD,KEY,True,https://chi.lft.to/lastmile_qr_scan,https://chi.lft.to/lastmile_qr_scan,35.0,classic,662,False,662,15,False,-87.699595,662,a3b49b4c-a135-11e9-9cda-0a87ae2ba916,,,,,,,,,,,,,
42.064854,Lincolnwood Dr & Central St,CREDITCARD,TRANSITCARD,KEY,True,https://chi.lft.to/lastmile_qr_scan,https://chi.lft.to/lastmile_qr_scan,35.0,classic,663,False,E014,15,False,-87.715297,663,a3b4a05c-a135-11e9-9cda-0a87ae2ba916,,,,,,,,,,,,,
41.939354,Leavitt St & Belmont Ave,CREDITCARD,TRANSITCARD,KEY,True,https://chi.lft.to/lastmile_qr_scan,https://chi.lft.to/lastmile_qr_scan,,classic,664,False,KA17018068,15,False,-87.683282,664,a3b4a579-a135-11e9-9cda-0a87ae2ba916,,,,,,,,,,,,,
41.747363,South Chicago Ave & Elliot Ave,CREDITCARD,TRANSITCARD,KEY,True,https://chi.lft.to/lastmile_qr_scan,https://chi.lft.to/lastmile_qr_scan,,classic,665,False,665,7,False,-87.580046,665,a3b4aa91-a135-11e9-9cda-0a87ae2ba916,,,,,,,,,,,,,
41.907221,Cherry Ave & Blackhawk St,CREDITCARD,TRANSITCARD,KEY,True,https://chi.lft.to/lastmile_qr_scan,https://chi.lft.to/lastmile_qr_scan,,classic,666,False,18069,15,False,-87.655618,666,a3b4afb6-a135-11e9-9cda-0a87ae2ba916,,,,,,,,,,,,,
41.89102331025185,Franklin St & Illinois St,CREDITCARD,TRANSITCARD,KEY,True,https://chi.lft.to/lastmile_qr_scan,https://chi.lft.to/lastmile_qr_scan,,classic,672,False,RN-,11,False,-87.63547986745834,672,8995498f-1209-4b06-9317-01cd695b3b61,,,,,,,,,,,,,
